"Longitude (x)","Latitude (y)","Station Name","Climate ID","Date/Time","Year","Month","Day","Time","Temp (°C)","Temp Flag","Dew Point Temp (°C)","Dew Point Temp Flag","Rel Hum (%)","Rel Hum Flag","Wind Dir (10s deg)","Wind Dir Flag","Wind Spd (km/h)","Wind Spd Flag","Visibility (km)","Visibility Flag","Stn Press (kPa)","Stn Press Flag","Hmdx","Hmdx Flag","Wind Chill","Wind Chill Flag","Weather"
"-73.75","45.47","MONTREAL/PIERRE ELLIOTT TRUDEAU INTL A","7025250","2012-03-01 00:00","2012","03","01","00:00","-5.5","","-9.7","","72","","5","","24","","4.0","","100.97","","","","-13","","Snow"
"-73.75","45.47","MONTREAL/PIERRE ELLIOTT TRUDEAU INTL A","7025250","2012-03-01 01:00","2012","03","01","01:00","-5.7","","-8.7","","79","","6","","26","","2.4","","100.87","","","","-13","","Snow"
"-73.75","45.47","MONTREAL/PIERRE ELLIOTT TRUDEAU INTL A","7025250","2012-03-01 02:00","2012","03","01","02:00","-5.4","","-8.3","","80","","5","","28","","4.8","","100.80","","","","-13","","Snow"
"-73.75","45.47","MONTREAL/PIERRE ELLIOTT TRUDEAU INTL A","7025250","2012-03-01 03:00","2012","03","01","03:00","-4.7","","-7.7","","79","","5","","28","","4.0","","100.69","","","","-12","","Snow"
"-73.75","45.47","MONTREAL/PIERRE ELLIOTT TRUDEAU INTL A","7025250","2012-03-01 04:00","2012","03","01","04:00","-5.4","","-7.8","","83","","5","","35","","1.6","","100.62","","","","-14","","Snow"
"-73.75","45.47","MONTREAL/PIERRE ELLIOTT TRUDEAU INTL A","7025250","2012-03-01 05:00","2012","03","01","05:00","-5.3","","-7.9","","82","","4","","33","","2.4","","100.58","","","","-14","","Snow"
"-73.75","45.47","MONTREAL/PIERRE ELLIOTT TRUDEAU INTL A","7025250","2012-03-01 06:00","2012","03","01","06:00","-5.2","","-7.8","","82","","5","","33","","4.0","","100.57","","","","-14","","Snow"
"-73.75","45.47","MONTREAL/PIERRE ELLIOTT TRUDEAU INTL A","7025250","2012-03-01 07:00","2012","03","01","07:00","-4.9","","-7.4","","83","","5","","30","","1.6","","100.59","","","","-13","","Snow"
"-73.75","45.47","MONTREAL/PIERRE ELLIOTT TRUDEAU INTL A","7025250","2012-03-01 08:00","2012","03","01","08:00","-5.0","","-7.5","","83","","5","","32","","1.2","","100.59","","","","-13","","Snow"
"-73.75","45.47","MONTREAL/PIERRE ELLIOTT TRUDEAU INTL A","7025250","2012-03-01 09:00","2012","03","01","09:00","-4.9","","-7.5","","82","","5","","32","","1.6","","100.60","","","","-13","","Snow"
"-73.75","45.47","MONTREAL/PIERRE ELLIOTT TRUDEAU INTL A","7025250","2012-03-01 10:00","2012","03","01","10:00","-4.7","","-7.3","","82","","5","","32","","1.2","","100.62","","","","-13","","Snow"
"-73.75","45.47","MONTREAL/PIERRE ELLIOTT TRUDEAU INTL A","7025250","2012-03-01 11:00","2012","03","01","11:00","-4.4","","-6.8","","83","","5","","28","","1.0","","100.66","","","","-12","","Snow"
"-73.75","45.47","MONTREAL/PIERRE ELLIOTT TRUDEAU INTL A","7025250","2012-03-01 12:00","2012","03","01","12:00","-4.3","","-6.8","","83","","5","","30","","1.2","","100.66","","","","-12","","Snow"
"-73.75","45.47","MONTREAL/PIERRE ELLIOTT TRUDEAU INTL A","7025250","2012-03-01 13:00","2012","03","01","13:00","-4.3","","-6.9","","82","","6","","28","","1.2","","100.65","","","","-12","","Snow"
"-73.75","45.47","MONTREAL/PIERRE ELLIOTT TRUDEAU INTL A","7025250","2012-03-01 14:00","2012","03","01","14:00","-3.9","","-6.6","","81","","6","","28","","1.2","","100.67","","","","-11","","Snow"
"-73.75","45.47","MONTREAL/PIERRE ELLIOTT TRUDEAU INTL A","7025250","2012-03-01 15:00","2012","03","01","15:00","-3.3","","-6.2","","80","","6","","24","","1.6","","100.71","","","","-10","","Snow"
"-73.75","45.47","MONTREAL/PIERRE ELLIOTT TRUDEAU INTL A","7025250","2012-03-01 16:00","2012","03","01","16:00","-2.7","","-5.7","","80","","7","","19","","2.4","","100.74","","","","-8","","Snow"
"-73.75","45.47","MONTREAL/PIERRE ELLIOTT TRUDEAU INTL A","7025250","2012-03-01 17:00","2012","03","01","17:00","-2.9","","-5.9","","80","","5","","20","","4.0","","100.80","","","","-9","","Snow"
"-73.75","45.47","MONTREAL/PIERRE ELLIOTT TRUDEAU INTL A","7025250","2012-03-01 18:00","2012","03","01","18:00","-3.0","","-6.0","","80","","6","","19","","4.0","","100.87","","","","-9","","Snow"
"-73.75","45.47","MONTREAL/PIERRE ELLIOTT TRUDEAU INTL A","7025250","2012-03-01 19:00","2012","03","01","19:00","-3.6","","-6.4","","81","","6","","17","","3.2","","100.93","","","","-9","","Snow"
"-73.75","45.47","MONTREAL/PIERRE ELLIOTT TRUDEAU INTL A","7025250","2012-03-01 20:00","2012","03","01","20:00","-3.7","","-6.4","","81","","6","","20","","4.8","","100.95","","","","-10","","Snow"
"-73.75","45.47","MONTREAL/PIERRE ELLIOTT TRUDEAU INTL A","7025250","2012-03-01 21:00","2012","03","01","21:00","-3.9","","-6.7","","81","","5","","22","","6.4","","100.98","","","","-10","","Snow"
"-73.75","45.47","MONTREAL/PIERRE ELLIOTT TRUDEAU INTL A","7025250","2012-03-01 22:00","2012","03","01","22:00","-4.3","","-6.9","","82","","5","","22","","2.4","","101.00","","","","-11","","Snow"
"-73.75","45.47","MONTREAL/PIERRE ELLIOTT TRUDEAU INTL A","7025250","2012-03-01 23:00","2012","03","01","23:00","-4.3","","-7.1","","81","","5","","22","","4.8","","101.04","","","","-11","","Snow"
"-73.75","45.47","MONTREAL/PIERRE ELLIOTT TRUDEAU INTL A","7025250","2012-03-02 00:00","2012","03","02","00:00","-4.8","","-7.3","","83","","4","","22","","3.2","","101.04","","","","-12","","Snow"
"-73.75","45.47","MONTREAL/PIERRE ELLIOTT TRUDEAU INTL A","7025250","2012-03-02 01:00","2012","03","02","01:00","-5.3","","-7.9","","82","","5","","20","","4.8","","101.09","","","","-12","","Snow"
"-73.75","45.47","MONTREAL/PIERRE ELLIOTT TRUDEAU INTL A","7025250","2012-03-02 02:00","2012","03","02","02:00","-5.2","","-7.8","","82","","4","","19","","6.4","","101.11","","","","-12","","Snow"
"-73.75","45.47","MONTREAL/PIERRE ELLIOTT TRUDEAU INTL A","7025250","2012-03-02 03:00","2012","03","02","03:00","-5.5","","-7.9","","83","","4","","19","","4.8","","101.15","","","","-12","","Snow"
"-73.75","45.47","MONTREAL/PIERRE ELLIOTT TRUDEAU INTL A","7025250","2012-03-02 04:00","2012","03","02","04:00","-5.6","","-8.2","","82","","5","","24","","6.4","","101.15","","","","-13","","Snow"
"-73.75","45.47","MONTREAL/PIERRE ELLIOTT TRUDEAU INTL A","7025250","2012-03-02 05:00","2012","03","02","05:00","-5.5","","-8.3","","81","","4","","19","","12.9","","101.15","","","","-12","","Snow"
"-73.75","45.47","MONTREAL/PIERRE ELLIOTT TRUDEAU INTL A","7025250","2012-03-02 06:00","2012","03","02","06:00","-5.6","","-8.6","","79","","3","","19","","16.1","","101.14","","","","-12","","Snow"
"-73.75","45.47","MONTREAL/PIERRE ELLIOTT TRUDEAU INTL A","7025250","2012-03-02 07:00","2012","03","02","07:00","-5.7","","-8.7","","79","","3","","22","","24.1","","101.17","","","","-13","","Cloudy"
"-73.75","45.47","MONTREAL/PIERRE ELLIOTT TRUDEAU INTL A","7025250","2012-03-02 08:00","2012","03","02","08:00","-5.7","","-8.8","","79","","3","","17","","24.1","","101.20","","","","-12","","Snow"
"-73.75","45.47","MONTREAL/PIERRE ELLIOTT TRUDEAU INTL A","7025250","2012-03-02 09:00","2012","03","02","09:00","-6.1","","-8.4","","84","","2","","13","","2.0","","101.19","","","","-11","","Snow"
"-73.75","45.47","MONTREAL/PIERRE ELLIOTT TRUDEAU INTL A","7025250","2012-03-02 10:00","2012","03","02","10:00","-5.9","","-8.3","","83","","1","","15","","4.0","","101.22","","","","-12","","Snow"
"-73.75","45.47","MONTREAL/PIERRE ELLIOTT TRUDEAU INTL A","7025250","2012-03-02 11:00","2012","03","02","11:00","-5.5","","-7.5","","86","","2","","15","","2.8","","101.21","","","","-11","","Snow"
"-73.75","45.47","MONTREAL/PIERRE ELLIOTT TRUDEAU INTL A","7025250","2012-03-02 12:00","2012","03","02","12:00","-5.2","","-7.1","","86","","3","","13","","2.4","","101.18","","","","-10","","Freezing Drizzle,Snow"
"-73.75","45.47","MONTREAL/PIERRE ELLIOTT TRUDEAU INTL A","7025250","2012-03-02 13:00","2012","03","02","13:00","-4.6","","-6.5","","87","","3","","13","","4.8","","101.09","","","","-10","","Snow"
"-73.75","45.47","MONTREAL/PIERRE ELLIOTT TRUDEAU INTL A","7025250","2012-03-02 14:00","2012","03","02","14:00","-4.1","","-6.1","","86","","3","","15","","8.0","","101.03","","","","-9","","Fog"
"-73.75","45.47","MONTREAL/PIERRE ELLIOTT TRUDEAU INTL A","7025250","2012-03-02 15:00","2012","03","02","15:00","-3.3","","-5.7","","83","","3","","15","","11.3","","100.98","","","","-8","","Cloudy"
"-73.75","45.47","MONTREAL/PIERRE ELLIOTT TRUDEAU INTL A","7025250","2012-03-02 16:00","2012","03","02","16:00","-2.9","","-5.3","","83","","3","","15","","11.3","","100.93","","","","-8","","Cloudy"
"-73.75","45.47","MONTREAL/PIERRE ELLIOTT TRUDEAU INTL A","7025250","2012-03-02 17:00","2012","03","02","17:00","-2.7","","-5.1","","84","","2","","15","","12.9","","100.89","","","","-8","","Cloudy"
"-73.75","45.47","MONTREAL/PIERRE ELLIOTT TRUDEAU INTL A","7025250","2012-03-02 18:00","2012","03","02","18:00","-2.4","","-4.8","","84","","4","","20","","12.9","","100.81","","","","-8","","Cloudy"
"-73.75","45.47","MONTREAL/PIERRE ELLIOTT TRUDEAU INTL A","7025250","2012-03-02 19:00","2012","03","02","19:00","-1.8","","-4.2","","84","","3","","17","","16.1","","100.75","","","","-7","","Cloudy"
"-73.75","45.47","MONTREAL/PIERRE ELLIOTT TRUDEAU INTL A","7025250","2012-03-02 20:00","2012","03","02","20:00","-2.3","","-4.7","","84","","3","","15","","16.1","","100.74","","","","-7","","Cloudy"
"-73.75","45.47","MONTREAL/PIERRE ELLIOTT TRUDEAU INTL A","7025250","2012-03-02 21:00","2012","03","02","21:00","-1.4","","-4.0","","82","","4","","15","","19.3","","100.62","","","","-6","","Cloudy"
"-73.75","45.47","MONTREAL/PIERRE ELLIOTT TRUDEAU INTL A","7025250","2012-03-02 22:00","2012","03","02","22:00","0.2","","-4.2","","72","","11","","13","","25.0","","100.49","","","","","","Cloudy"
"-73.75","45.47","MONTREAL/PIERRE ELLIOTT TRUDEAU INTL A","7025250","2012-03-02 23:00","2012","03","02","23:00","0.5","","-3.6","","74","","13","","17","","25.0","","100.29","","","","","","Cloudy"
"-73.75","45.47","MONTREAL/PIERRE ELLIOTT TRUDEAU INTL A","7025250","2012-03-03 00:00","2012","03","03","00:00","1.0","","-3.2","","73","","13","","22","","25.0","","100.12","","","","","","Cloudy"
"-73.75","45.47","MONTREAL/PIERRE ELLIOTT TRUDEAU INTL A","7025250","2012-03-03 01:00","2012","03","03","01:00","1.2","","-2.8","","75","","12","","19","","25.0","","99.96","","","","","","Snow"
"-73.75","45.47","MONTREAL/PIERRE ELLIOTT TRUDEAU INTL A","7025250","2012-03-03 02:00","2012","03","03","02:00","-0.6","","-2.9","","84","","9","","19","","2.4","","99.75","","","","-6","","Snow"
"-73.75","45.47","MONTREAL/PIERRE ELLIOTT TRUDEAU INTL A","7025250","2012-03-03 03:00","2012","03","03","03:00","-0.3","","-2.4","","86","","10","","22","","2.8","","99.55","","","","-6","","Snow"
"-73.75","45.47","MONTREAL/PIERRE ELLIOTT TRUDEAU INTL A","7025250","2012-03-03 04:00","2012","03","03","04:00","0.3","","-1.7","","86","","12","","24","","11.3","","99.40","","","","","","Snow,Ice Pellets"
"-73.75","45.47","MONTREAL/PIERRE ELLIOTT TRUDEAU INTL A","7025250","2012-03-03 05:00","2012","03","03","05:00","0.8","","-1.5","","85","","13","","41","","19.3","","99.18","","","","","","Cloudy"
"-73.75","45.47","MONTREAL/PIERRE ELLIOTT TRUDEAU INTL A","7025250","2012-03-03 06:00","2012","03","03","06:00","1.5","","-1.6","","80","","14","","43","","25.0","","99.02","","","","","","Mainly Clear"
"-73.75","45.47","MONTREAL/PIERRE ELLIOTT TRUDEAU INTL A","7025250","2012-03-03 07:00","2012","03","03","07:00","2.0","","-1.6","","77","","15","","41","","24.1","","98.89","","","","","","Mostly Cloudy"
"-73.75","45.47","MONTREAL/PIERRE ELLIOTT TRUDEAU INTL A","7025250","2012-03-03 08:00","2012","03","03","08:00","2.7","","-1.5","","74","","15","","32","","24.1","","98.79","","","","","","Mostly Cloudy"
"-73.75","45.47","MONTREAL/PIERRE ELLIOTT TRUDEAU INTL A","7025250","2012-03-03 09:00","2012","03","03","09:00","3.0","","-1.0","","75","","16","","37","","24.1","","98.70","","","","","","Cloudy"
"-73.75","45.47","MONTREAL/PIERRE ELLIOTT TRUDEAU INTL A","7025250","2012-03-03 10:00","2012","03","03","10:00","3.7","","0.4","","79","","21","","15","","24.1","","98.86","","","","","","Cloudy"
"-73.75","45.47","MONTREAL/PIERRE ELLIOTT TRUDEAU INTL A","7025250","2012-03-03 11:00","2012","03","03","11:00","4.0","","-0.7","","71","","23","","32","","24.1","","98.82","","","","","","Rain Showers"
"-73.75","45.47","MONTREAL/PIERRE ELLIOTT TRUDEAU INTL A","7025250","2012-03-03 12:00","2012","03","03","12:00","5.2","","-3.0","","55","","22","","37","","48.3","","98.82","","","","","","Mostly Cloudy"
"-73.75","45.47","MONTREAL/PIERRE ELLIOTT TRUDEAU INTL A","7025250","2012-03-03 13:00","2012","03","03","13:00","5.8","","-4.0","","49","","23","","50","","48.3","","98.73","","","","","","Mostly Cloudy"
"-73.75","45.47","MONTREAL/PIERRE ELLIOTT TRUDEAU INTL A","7025250","2012-03-03 14:00","2012","03","03","14:00","6.5","","-5.5","","42","","24","","48","","48.3","","98.68","","","","","","Mostly Cloudy"
"-73.75","45.47","MONTREAL/PIERRE ELLIOTT TRUDEAU INTL A","7025250","2012-03-03 15:00","2012","03","03","15:00","5.3","","-5.6","","45","","23","","57","","24.1","","98.67","","","","","","Mostly Cloudy"
"-73.75","45.47","MONTREAL/PIERRE ELLIOTT TRUDEAU INTL A","7025250","2012-03-03 16:00","2012","03","03","16:00","5.0","","-5.0","","48","","23","","63","","48.3","","98.67","","","","","","Mainly Clear"
"-73.75","45.47","MONTREAL/PIERRE ELLIOTT TRUDEAU INTL A","7025250","2012-03-03 17:00","2012","03","03","17:00","4.3","","-4.9","","51","","23","","57","","48.3","","98.71","","","","","","Mainly Clear"
"-73.75","45.47","MONTREAL/PIERRE ELLIOTT TRUDEAU INTL A","7025250","2012-03-03 18:00","2012","03","03","18:00","3.7","","-4.3","","56","","23","","48","","25.0","","98.82","","","","","","Mostly Cloudy"
"-73.75","45.47","MONTREAL/PIERRE ELLIOTT TRUDEAU INTL A","7025250","2012-03-03 19:00","2012","03","03","19:00","3.4","","-4.0","","58","","23","","44","","25.0","","98.92","","","","","","Mainly Clear"
"-73.75","45.47","MONTREAL/PIERRE ELLIOTT TRUDEAU INTL A","7025250","2012-03-03 20:00","2012","03","03","20:00","3.2","","-3.9","","60","","22","","50","","25.0","","98.96","","","","","","Mainly Clear"
"-73.75","45.47","MONTREAL/PIERRE ELLIOTT TRUDEAU INTL A","7025250","2012-03-03 21:00","2012","03","03","21:00","2.9","","-3.6","","62","","23","","46","","25.0","","98.98","","","","","","Snow"
"-73.75","45.47","MONTREAL/PIERRE ELLIOTT TRUDEAU INTL A","7025250","2012-03-03 22:00","2012","03","03","22:00","2.8","","-3.4","","64","","24","","57","","25.0","","99.07","","","","","","Snow"
"-73.75","45.47","MONTREAL/PIERRE ELLIOTT TRUDEAU INTL A","7025250","2012-03-03 23:00","2012","03","03","23:00","2.3","","-3.1","","67","","25","","33","","25.0","","99.18","","","","","","Snow"
"-73.75","45.47","MONTREAL/PIERRE ELLIOTT TRUDEAU INTL A","7025250","2012-03-04 00:00","2012","03","04","00:00","0.5","","-4.8","","68","","28","","32","","25.0","","99.34","","","","","","Mostly Cloudy"
"-73.75","45.47","MONTREAL/PIERRE ELLIOTT TRUDEAU INTL A","7025250","2012-03-04 01:00","2012","03","04","01:00","-0.8","","-6.0","","68","","27","","24","","25.0","","99.46","","","","-7","","Mostly Cloudy"
"-73.75","45.47","MONTREAL/PIERRE ELLIOTT TRUDEAU INTL A","7025250","2012-03-04 02:00","2012","03","04","02:00","-1.8","","-7.8","","64","","27","","26","","25.0","","99.56","","","","-8","","Mostly Cloudy"
"-73.75","45.47","MONTREAL/PIERRE ELLIOTT TRUDEAU INTL A","7025250","2012-03-04 03:00","2012","03","04","03:00","-2.1","","-8.2","","63","","27","","19","","25.0","","99.63","","","","-8","","Mostly Cloudy"
"-73.75","45.47","MONTREAL/PIERRE ELLIOTT TRUDEAU INTL A","7025250","2012-03-04 04:00","2012","03","04","04:00","-2.9","","-9.0","","63","","30","","20","","25.0","","99.70","","","","-9","","Mostly Cloudy"
"-73.75","45.47","MONTREAL/PIERRE ELLIOTT TRUDEAU INTL A","7025250","2012-03-04 05:00","2012","03","04","05:00","-4.3","","-10.5","","62","","32","","19","","25.0","","99.77","","","","-10","","Cloudy"
"-73.75","45.47","MONTREAL/PIERRE ELLIOTT TRUDEAU INTL A","7025250","2012-03-04 06:00","2012","03","04","06:00","-4.8","","-11.6","","59","","28","","17","","25.0","","99.84","","","","-11","","Mostly Cloudy"
"-73.75","45.47","MONTREAL/PIERRE ELLIOTT TRUDEAU INTL A","7025250","2012-03-04 07:00","2012","03","04","07:00","-5.7","","-12.6","","58","","29","","22","","24.1","","99.88","","","","-13","","Mostly Cloudy"
"-73.75","45.47","MONTREAL/PIERRE ELLIOTT TRUDEAU INTL A","7025250","2012-03-04 08:00","2012","03","04","08:00","-5.9","","-13.8","","54","","27","","13","","24.1","","99.97","","","","-11","","Mostly Cloudy"
"-73.75","45.47","MONTREAL/PIERRE ELLIOTT TRUDEAU INTL A","7025250","2012-03-04 09:00","2012","03","04","09:00","-6.3","","-13.5","","57","","30","","15","","24.1","","99.95","","","","-12","","Cloudy"
"-73.75","45.47","MONTREAL/PIERRE ELLIOTT TRUDEAU INTL A","7025250","2012-03-04 10:00","2012","03","04","10:00","-6.3","","-13.5","","57","","27","","17","E","24.1","","99.95","","","","-13","E","Cloudy"
"-73.75","45.47","MONTREAL/PIERRE ELLIOTT TRUDEAU INTL A","7025250","2012-03-04 11:00","2012","03","04","11:00","-6.5","","-14.0","","55","","29","","17","","24.1","","99.96","","","","-13","","Cloudy"
"-73.75","45.47","MONTREAL/PIERRE ELLIOTT TRUDEAU INTL A","7025250","2012-03-04 12:00","2012","03","04","12:00","-5.8","","-12.9","","57","","28","","19","","48.3","","99.95","","","","-12","","Mostly Cloudy"
"-73.75","45.47","MONTREAL/PIERRE ELLIOTT TRUDEAU INTL A","7025250","2012-03-04 13:00","2012","03","04","13:00","-5.5","","-12.8","","56","","28","","19","","48.3","","99.88","","","","-12","","Mainly Clear"
"-73.75","45.47","MONTREAL/PIERRE ELLIOTT TRUDEAU INTL A","7025250","2012-03-04 14:00","2012","03","04","14:00","-5.7","","-13.4","","55","","28","","19","","48.3","","99.90","","","","-12","","Mostly Cloudy"
"-73.75","45.47","MONTREAL/PIERRE ELLIOTT TRUDEAU INTL A","7025250","2012-03-04 15:00","2012","03","04","15:00","-5.6","","-13.5","","54","","27","","22","","48.3","","99.90","","","","-13","","Mostly Cloudy"
"-73.75","45.47","MONTREAL/PIERRE ELLIOTT TRUDEAU INTL A","7025250","2012-03-04 16:00","2012","03","04","16:00","-5.5","","-13.3","","54","","27","","20","","48.3","","99.93","","","","-12","","Mainly Clear"
"-73.75","45.47","MONTREAL/PIERRE ELLIOTT TRUDEAU INTL A","7025250","2012-03-04 17:00","2012","03","04","17:00","-6.9","","-14.6","","54","","28","","22","","48.3","","99.94","","","","-14","","Mainly Clear"
"-73.75","45.47","MONTREAL/PIERRE ELLIOTT TRUDEAU INTL A","7025250","2012-03-04 18:00","2012","03","04","18:00","-7.9","","-15.7","","53","","27","","28","","25.0","","100.04","","","","-17","","Mainly Clear"
"-73.75","45.47","MONTREAL/PIERRE ELLIOTT TRUDEAU INTL A","7025250","2012-03-04 19:00","2012","03","04","19:00","-7.9","","-15.5","","54","","27","","22","","25.0","","100.09","","","","-16","","Mostly Cloudy"
"-73.75","45.47","MONTREAL/PIERRE ELLIOTT TRUDEAU INTL A","7025250","2012-03-04 20:00","2012","03","04","20:00","-8.5","","-14.6","","61","","28","","24","","25.0","","100.13","","","","-17","","Cloudy"
"-73.75","45.47","MONTREAL/PIERRE ELLIOTT TRUDEAU INTL A","7025250","2012-03-04 21:00","2012","03","04","21:00","-9.0","","-13.7","","69","","27","","15","","25.0","","100.18","","","","-16","","Snow Showers"
"-73.75","45.47","MONTREAL/PIERRE ELLIOTT TRUDEAU INTL A","7025250","2012-03-04 22:00","2012","03","04","22:00","-10.1","","-15.5","","65","","29","","17","","25.0","","100.21","","","","-17","","Cloudy"
"-73.75","45.47","MONTREAL/PIERRE ELLIOTT TRUDEAU INTL A","7025250","2012-03-04 23:00","2012","03","04","23:00","-11.1","","-16.3","","65","","27","","24","","25.0","","100.23","","","","-20","","Mostly Cloudy"
"-73.75","45.47","MONTREAL/PIERRE ELLIOTT TRUDEAU INTL A","7025250","2012-03-05 00:00","2012","03","05","00:00","-12.4","","-17.4","","66","","27","","19","","25.0","","100.26","","","","-21","","Mainly Clear"
"-73.75","45.47","MONTREAL/PIERRE ELLIOTT TRUDEAU INTL A","7025250","2012-03-05 01:00","2012","03","05","01:00","-13.6","","-18.5","","66","","27","","24","","25.0","","100.33","","","","-23","","Mainly Clear"
"-73.75","45.47","MONTREAL/PIERRE ELLIOTT TRUDEAU INTL A","7025250","2012-03-05 02:00","2012","03","05","02:00","-14.5","","-22.3","","52","","27","","24","","25.0","","100.39","","","","-24","","Clear"
"-73.75","45.47","MONTREAL/PIERRE ELLIOTT TRUDEAU INTL A","7025250","2012-03-05 03:00","2012","03","05","03:00","-15.0","","-21.5","","58","","27","","22","","25.0","","100.47","","","","-25","","Clear"
"-73.75","45.47","MONTREAL/PIERRE ELLIOTT TRUDEAU INTL A","7025250","2012-03-05 04:00","2012","03","05","04:00","-15.5","","-21.9","","58","","27","","26","","25.0","","100.55","","","","-26","","Clear"
"-73.75","45.47","MONTREAL/PIERRE ELLIOTT TRUDEAU INTL A","7025250","2012-03-05 05:00","2012","03","05","05:00","-15.9","","-22.1","","59","","26","","20","","25.0","","100.69","","","","-25","","Clear"
"-73.75","45.47","MONTREAL/PIERRE ELLIOTT TRUDEAU INTL A","7025250","2012-03-05 06:00","2012","03","05","06:00","-16.2","","-22.6","","58","","26","","26","","24.1","","100.77","","","","-27","","Mostly Cloudy"
"-73.75","45.47","MONTREAL/PIERRE ELLIOTT TRUDEAU INTL A","7025250","2012-03-05 07:00","2012","03","05","07:00","-16.2","","-22.3","","59","","27","","22","","24.1","","100.88","","","","-26","","Mostly Cloudy"
"-73.75","45.47","MONTREAL/PIERRE ELLIOTT TRUDEAU INTL A","7025250","2012-03-05 08:00","2012","03","05","08:00","-15.7","","-22.5","","56","","27","","24","","24.1","","101.00","","","","-26","","Mostly Cloudy"
"-73.75","45.47","MONTREAL/PIERRE ELLIOTT TRUDEAU INTL A","7025250","2012-03-05 09:00","2012","03","05","09:00","-15.1","","-22.1","","55","","27","","24","","24.1","","101.11","","","","-25","","Mostly Cloudy"
"-73.75","45.47","MONTREAL/PIERRE ELLIOTT TRUDEAU INTL A","7025250","2012-03-05 10:00","2012","03","05","10:00","-14.4","","-21.5","","55","","27","","26","","24.1","","101.21","","","","-25","","Mostly Cloudy"
"-73.75","45.47","MONTREAL/PIERRE ELLIOTT TRUDEAU INTL A","7025250","2012-03-05 11:00","2012","03","05","11:00","-13.4","","-20.7","","54","","27","","26","","48.3","","101.31","","","","-23","","Mostly Cloudy"
"-73.75","45.47","MONTREAL/PIERRE ELLIOTT TRUDEAU INTL A","7025250","2012-03-05 12:00","2012","03","05","12:00","-12.2","","-19.9","","53","","27","","6","","48.3","","101.39","","","","-16","","Mostly Cloudy"
"-73.75","45.47","MONTREAL/PIERRE ELLIOTT TRUDEAU INTL A","7025250","2012-03-05 13:00","2012","03","05","13:00","-11.3","","-19.5","","51","","27","","24","","48.3","","101.46","","","","-20","","Mostly Cloudy"
"-73.75","45.47","MONTREAL/PIERRE ELLIOTT TRUDEAU INTL A","7025250","2012-03-05 14:00","2012","03","05","14:00","-10.8","","-19.8","","47","","25","","28","","48.3","","101.55","","","","-20","","Mostly Cloudy"
"-73.75","45.47","MONTREAL/PIERRE ELLIOTT TRUDEAU INTL A","7025250","2012-03-05 15:00","2012","03","05","15:00","-10.0","","-18.6","","49","","24","","30","","48.3","","101.64","","","","-20","","Mostly Cloudy"
"-73.75","45.47","MONTREAL/PIERRE ELLIOTT TRUDEAU INTL A","7025250","2012-03-05 16:00","2012","03","05","16:00","-9.9","","-18.9","","48","","25","","26","","48.3","","101.73","","","","-19","","Mostly Cloudy"
"-73.75","45.47","MONTREAL/PIERRE ELLIOTT TRUDEAU INTL A","7025250","2012-03-05 17:00","2012","03","05","17:00","-9.5","","-18.8","","47","","25","","24","","48.3","","101.82","","","","-18","","Mainly Clear"
"-73.75","45.47","MONTREAL/PIERRE ELLIOTT TRUDEAU INTL A","7025250","2012-03-05 18:00","2012","03","05","18:00","-9.8","","-19.0","","47","","25","","22","","25.0","","101.90","","","","-18","","Mainly Clear"
"-73.75","45.47","MONTREAL/PIERRE ELLIOTT TRUDEAU INTL A","7025250","2012-03-05 19:00","2012","03","05","19:00","-10.1","","-19.1","","48","","26","","20","","25.0","","102.01","","","","-18","","Clear"
"-73.75","45.47","MONTREAL/PIERRE ELLIOTT TRUDEAU INTL A","7025250","2012-03-05 20:00","2012","03","05","20:00","-10.5","","-19.2","","49","","27","","17","","25.0","","102.11","","","","-18","","Mainly Clear"
"-73.75","45.47","MONTREAL/PIERRE ELLIOTT TRUDEAU INTL A","7025250","2012-03-05 21:00","2012","03","05","21:00","-11.0","","-19.6","","49","","27","","17","","25.0","","102.23","","","","-18","","Clear"
"-73.75","45.47","MONTREAL/PIERRE ELLIOTT TRUDEAU INTL A","7025250","2012-03-05 22:00","2012","03","05","22:00","-11.6","","-20.2","","49","","28","","15","","25.0","","102.29","","","","-19","","Clear"
"-73.75","45.47","MONTREAL/PIERRE ELLIOTT TRUDEAU INTL A","7025250","2012-03-05 23:00","2012","03","05","23:00","-12.6","","-20.3","","53","","28","","11","","25.0","","102.34","","","","-19","","Clear"
"-73.75","45.47","MONTREAL/PIERRE ELLIOTT TRUDEAU INTL A","7025250","2012-03-06 00:00","2012","03","06","00:00","-13.4","","-20.5","","55","","29","","11","","25.0","","102.41","","","","-20","","Clear"
"-73.75","45.47","MONTREAL/PIERRE ELLIOTT TRUDEAU INTL A","7025250","2012-03-06 01:00","2012","03","06","01:00","-13.4","","-20.3","","56","","29","","11","","25.0","","102.50","","","","-20","","Clear"
"-73.75","45.47","MONTREAL/PIERRE ELLIOTT TRUDEAU INTL A","7025250","2012-03-06 02:00","2012","03","06","02:00","-13.7","","-20.7","","55","","25","","4","","25.0","","102.55","","","","-16","","Clear"
"-73.75","45.47","MONTREAL/PIERRE ELLIOTT TRUDEAU INTL A","7025250","2012-03-06 03:00","2012","03","06","03:00","-14.8","","-21.1","","59","","27","","9","","25.0","","102.61","","","","-21","","Clear"
"-73.75","45.47","MONTREAL/PIERRE ELLIOTT TRUDEAU INTL A","7025250","2012-03-06 04:00","2012","03","06","04:00","-14.5","","-21.1","","57","","28","","9","","25.0","","102.70","","","","-20","","Clear"
"-73.75","45.47","MONTREAL/PIERRE ELLIOTT TRUDEAU INTL A","7025250","2012-03-06 05:00","2012","03","06","05:00","-14.6","","-21.0","","58","","28","","13","","25.0","","102.85","","","","-22","","Clear"
"-73.75","45.47","MONTREAL/PIERRE ELLIOTT TRUDEAU INTL A","7025250","2012-03-06 06:00","2012","03","06","06:00","-15.3","","-21.3","","60","","28","","11","","24.1","","102.90","","","","-22","","Clear"
"-73.75","45.47","MONTREAL/PIERRE ELLIOTT TRUDEAU INTL A","7025250","2012-03-06 07:00","2012","03","06","07:00","-14.8","","-20.7","","61","","26","","11","","48.3","","103.00","","","","-21","","Clear"
"-73.75","45.47","MONTREAL/PIERRE ELLIOTT TRUDEAU INTL A","7025250","2012-03-06 08:00","2012","03","06","08:00","-13.0","","-19.4","","59","","","","0","","48.3","","103.06","","","","","","Clear"
"-73.75","45.47","MONTREAL/PIERRE ELLIOTT TRUDEAU INTL A","7025250","2012-03-06 09:00","2012","03","06","09:00","-11.3","","-19.1","","52","","25","","6","","48.3","","103.10","","","","-15","","Clear"
"-73.75","45.47","MONTREAL/PIERRE ELLIOTT TRUDEAU INTL A","7025250","2012-03-06 10:00","2012","03","06","10:00","-10.0","","-16.8","","57","","20","","9","","48.3","","103.12","","","","-15","","Mainly Clear"
"-73.75","45.47","MONTREAL/PIERRE ELLIOTT TRUDEAU INTL A","7025250","2012-03-06 11:00","2012","03","06","11:00","-9.0","","-17.8","","49","","22","","15","","48.3","","103.12","","","","-16","","Mainly Clear"
"-73.75","45.47","MONTREAL/PIERRE ELLIOTT TRUDEAU INTL A","7025250","2012-03-06 12:00","2012","03","06","12:00","-7.8","","-15.3","","55","","22","","13","","48.3","","103.09","","","","-14","","Mainly Clear"
"-73.75","45.47","MONTREAL/PIERRE ELLIOTT TRUDEAU INTL A","7025250","2012-03-06 13:00","2012","03","06","13:00","-6.7","","-16.0","","48","","21","","9","","48.3","","103.01","","","","-11","","Mainly Clear"
"-73.75","45.47","MONTREAL/PIERRE ELLIOTT TRUDEAU INTL A","7025250","2012-03-06 14:00","2012","03","06","14:00","-5.8","","-15.8","","45","","22","","9","","48.3","","102.98","","","","-10","","Mainly Clear"
"-73.75","45.47","MONTREAL/PIERRE ELLIOTT TRUDEAU INTL A","7025250","2012-03-06 15:00","2012","03","06","15:00","-5.3","","-15.7","","44","","19","","6","","48.3","","102.96","","","","-8","","Mainly Clear"
"-73.75","45.47","MONTREAL/PIERRE ELLIOTT TRUDEAU INTL A","7025250","2012-03-06 16:00","2012","03","06","16:00","-4.9","","-16.2","","41","","22","","11","","48.3","","102.94","","","","-9","","Mainly Clear"
"-73.75","45.47","MONTREAL/PIERRE ELLIOTT TRUDEAU INTL A","7025250","2012-03-06 17:00","2012","03","06","17:00","-4.8","","-15.1","","44","","17","","6","","48.3","","102.90","","","","-8","","Mainly Clear"
"-73.75","45.47","MONTREAL/PIERRE ELLIOTT TRUDEAU INTL A","7025250","2012-03-06 18:00","2012","03","06","18:00","-6.3","","-14.6","","52","","12","","6","","48.3","","102.84","","","","-9","","Mainly Clear"
"-73.75","45.47","MONTREAL/PIERRE ELLIOTT TRUDEAU INTL A","7025250","2012-03-06 19:00","2012","03","06","19:00","-5.4","","-13.4","","53","","11","","11","","25.0","","102.81","","","","-10","","Mostly Cloudy"
"-73.75","45.47","MONTREAL/PIERRE ELLIOTT TRUDEAU INTL A","7025250","2012-03-06 20:00","2012","03","06","20:00","-5.3","","-13.6","","52","","9","","9","","25.0","","102.72","","","","-9","","Mainly Clear"
"-73.75","45.47","MONTREAL/PIERRE ELLIOTT TRUDEAU INTL A","7025250","2012-03-06 21:00","2012","03","06","21:00","-5.4","","-14.4","","49","","10","","9","","25.0","","102.69","","","","-9","","Mostly Cloudy"
"-73.75","45.47","MONTREAL/PIERRE ELLIOTT TRUDEAU INTL A","7025250","2012-03-06 22:00","2012","03","06","22:00","-5.0","","-15.1","","45","","8","","9","","25.0","","102.59","","","","-9","","Mostly Cloudy"
"-73.75","45.47","MONTREAL/PIERRE ELLIOTT TRUDEAU INTL A","7025250","2012-03-06 23:00","2012","03","06","23:00","-4.5","","-15.7","","41","","5","","6","","25.0","","102.55","","","","-7","","Mostly Cloudy"
"-73.75","45.47","MONTREAL/PIERRE ELLIOTT TRUDEAU INTL A","7025250","2012-03-07 00:00","2012","03","07","00:00","-3.6","","-13.3","","47","","9","","6","","25.0","","102.44","","","","-6","","Mostly Cloudy"
"-73.75","45.47","MONTREAL/PIERRE ELLIOTT TRUDEAU INTL A","7025250","2012-03-07 01:00","2012","03","07","01:00","-3.9","","-11.3","","56","","1","","9","","25.0","","102.46","","","","-8","","Mostly Cloudy"
"-73.75","45.47","MONTREAL/PIERRE ELLIOTT TRUDEAU INTL A","7025250","2012-03-07 02:00","2012","03","07","02:00","-5.7","","-11.9","","62","","3","","17","","25.0","","102.37","","","","-12","","Cloudy"
"-73.75","45.47","MONTREAL/PIERRE ELLIOTT TRUDEAU INTL A","7025250","2012-03-07 03:00","2012","03","07","03:00","-5.3","","-11.6","","61","","4","","13","","25.0","","102.22","","","","-10","","Cloudy"
"-73.75","45.47","MONTREAL/PIERRE ELLIOTT TRUDEAU INTL A","7025250","2012-03-07 04:00","2012","03","07","04:00","-5.2","","-11.2","","63","","3","","15","","25.0","","102.16","","","","-11","","Cloudy"
"-73.75","45.47","MONTREAL/PIERRE ELLIOTT TRUDEAU INTL A","7025250","2012-03-07 05:00","2012","03","07","05:00","-5.3","","-11.2","","63","","1","","17","","25.0","","102.13","","","","-11","","Mostly Cloudy"
"-73.75","45.47","MONTREAL/PIERRE ELLIOTT TRUDEAU INTL A","7025250","2012-03-07 06:00","2012","03","07","06:00","-4.3","","-10.3","","63","","3","","15","","24.1","","101.98","","","","-10","","Cloudy"
"-73.75","45.47","MONTREAL/PIERRE ELLIOTT TRUDEAU INTL A","7025250","2012-03-07 07:00","2012","03","07","07:00","-3.9","","-9.2","","67","","2","","11","","48.3","","101.92","","","","-8","","Cloudy"
"-73.75","45.47","MONTREAL/PIERRE ELLIOTT TRUDEAU INTL A","7025250","2012-03-07 08:00","2012","03","07","08:00","-4.6","","-9.5","","69","","1","","11","","48.3","","101.91","","","","-9","","Mostly Cloudy"
"-73.75","45.47","MONTREAL/PIERRE ELLIOTT TRUDEAU INTL A","7025250","2012-03-07 09:00","2012","03","07","09:00","-2.5","","-7.7","","67","","35","","11","","24.1","","101.85","","","","-7","","Clear"
"-73.75","45.47","MONTREAL/PIERRE ELLIOTT TRUDEAU INTL A","7025250","2012-03-07 10:00","2012","03","07","10:00","-0.1","","-6.5","","62","","36","","6","","24.1","","101.76","","","","-2","","Clear"
"-73.75","45.47","MONTREAL/PIERRE ELLIOTT TRUDEAU INTL A","7025250","2012-03-07 11:00","2012","03","07","11:00","3.0","","-4.7","","57","","36","","6","","24.1","","101.67","","","","","","Mainly Clear"
"-73.75","45.47","MONTREAL/PIERRE ELLIOTT TRUDEAU INTL A","7025250","2012-03-07 12:00","2012","03","07","12:00","6.4","","-3.6","","49","","13","","4","","24.1","","101.58","","","","","","Mainly Clear"
"-73.75","45.47","MONTREAL/PIERRE ELLIOTT TRUDEAU INTL A","7025250","2012-03-07 13:00","2012","03","07","13:00","8.9","","-4.4","","39","","19","","13","","24.1","","101.49","","","","","","Mainly Clear"
"-73.75","45.47","MONTREAL/PIERRE ELLIOTT TRUDEAU INTL A","7025250","2012-03-07 14:00","2012","03","07","14:00","9.3","","-4.1","","39","","20","","13","","24.1","","101.41","","","","","","Mainly Clear"
"-73.75","45.47","MONTREAL/PIERRE ELLIOTT TRUDEAU INTL A","7025250","2012-03-07 15:00","2012","03","07","15:00","9.7","","-2.7","","42","","19","","13","","24.1","","101.36","","","","","","Mainly Clear"
"-73.75","45.47","MONTREAL/PIERRE ELLIOTT TRUDEAU INTL A","7025250","2012-03-07 16:00","2012","03","07","16:00","11.4","","-2.3","","38","","20","","15","","24.1","","101.31","","","","","","Mostly Cloudy"
"-73.75","45.47","MONTREAL/PIERRE ELLIOTT TRUDEAU INTL A","7025250","2012-03-07 17:00","2012","03","07","17:00","9.9","","-1.9","","44","","21","","9","","24.1","","101.25","","","","","","Mostly Cloudy"
"-73.75","45.47","MONTREAL/PIERRE ELLIOTT TRUDEAU INTL A","7025250","2012-03-07 18:00","2012","03","07","18:00","5.5","","-1.6","","60","","14","","7","","24.1","","101.25","","","","","","Mainly Clear"
"-73.75","45.47","MONTREAL/PIERRE ELLIOTT TRUDEAU INTL A","7025250","2012-03-07 19:00","2012","03","07","19:00","6.0","","-1.8","","57","","15","","11","","25.0","","101.22","","","","","","Mostly Cloudy"
"-73.75","45.47","MONTREAL/PIERRE ELLIOTT TRUDEAU INTL A","7025250","2012-03-07 20:00","2012","03","07","20:00","7.6","","-2.1","","50","","18","","20","","25.0","","101.18","","","","","","Mostly Cloudy"
"-73.75","45.47","MONTREAL/PIERRE ELLIOTT TRUDEAU INTL A","7025250","2012-03-07 21:00","2012","03","07","21:00","6.8","","-2.1","","53","","17","","22","","25.0","","101.16","","","","","","Mostly Cloudy"
"-73.75","45.47","MONTREAL/PIERRE ELLIOTT TRUDEAU INTL A","7025250","2012-03-07 22:00","2012","03","07","22:00","6.0","","-1.7","","58","","15","","17","","25.0","","101.12","","","","","","Cloudy"
"-73.75","45.47","MONTREAL/PIERRE ELLIOTT TRUDEAU INTL A","7025250","2012-03-07 23:00","2012","03","07","23:00","4.8","","-1.7","","63","","16","","15","","25.0","","101.05","","","","","","Cloudy"
"-73.75","45.47","MONTREAL/PIERRE ELLIOTT TRUDEAU INTL A","7025250","2012-03-08 00:00","2012","03","08","00:00","6.2","","-1.5","","58","","16","","20","","25.0","","100.98","","","","","","Cloudy"
"-73.75","45.47","MONTREAL/PIERRE ELLIOTT TRUDEAU INTL A","7025250","2012-03-08 01:00","2012","03","08","01:00","5.5","","-1.4","","61","","15","","11","","25.0","","100.92","","","","","","Cloudy"
"-73.75","45.47","MONTREAL/PIERRE ELLIOTT TRUDEAU INTL A","7025250","2012-03-08 02:00","2012","03","08","02:00","7.9","","-1.2","","53","","18","","17","","25.0","","100.81","","","","","","Mostly Cloudy"
"-73.75","45.47","MONTREAL/PIERRE ELLIOTT TRUDEAU INTL A","7025250","2012-03-08 03:00","2012","03","08","03:00","10.1","","-0.9","","46","","20","","24","","25.0","","100.69","","","","","","Mostly Cloudy"
"-73.75","45.47","MONTREAL/PIERRE ELLIOTT TRUDEAU INTL A","7025250","2012-03-08 04:00","2012","03","08","04:00","10.0","","-0.7","","47","","19","","28","","25.0","","100.64","","","","","","Mostly Cloudy"
"-73.75","45.47","MONTREAL/PIERRE ELLIOTT TRUDEAU INTL A","7025250","2012-03-08 05:00","2012","03","08","05:00","5.7","","-0.8","","63","","16","","19","","25.0","","100.57","","","","","","Mostly Cloudy"
"-73.75","45.47","MONTREAL/PIERRE ELLIOTT TRUDEAU INTL A","7025250","2012-03-08 06:00","2012","03","08","06:00","7.6","","-0.4","","57","","17","","19","","24.1","","100.52","","","","","","Cloudy"
"-73.75","45.47","MONTREAL/PIERRE ELLIOTT TRUDEAU INTL A","7025250","2012-03-08 07:00","2012","03","08","07:00","10.3","","0.8","","52","","19","","26","","48.3","","100.47","","","","","","Cloudy"
"-73.75","45.47","MONTREAL/PIERRE ELLIOTT TRUDEAU INTL A","7025250","2012-03-08 08:00","2012","03","08","08:00","6.7","","0.2","","63","","16","","19","","48.3","","100.39","","","","","","Cloudy"
"-73.75","45.47","MONTREAL/PIERRE ELLIOTT TRUDEAU INTL A","7025250","2012-03-08 09:00","2012","03","08","09:00","10.2","","1.6","","55","","18","","26","","48.3","","100.29","","","","","","Cloudy"
"-73.75","45.47","MONTREAL/PIERRE ELLIOTT TRUDEAU INTL A","7025250","2012-03-08 10:00","2012","03","08","10:00","12.1","","2.9","","53","","19","","30","","24.1","","100.22","","","","","","Cloudy"
"-73.75","45.47","MONTREAL/PIERRE ELLIOTT TRUDEAU INTL A","7025250","2012-03-08 11:00","2012","03","08","11:00","12.7","","3.8","","55","","20","","26","","24.1","","100.13","","","","","","Cloudy"
"-73.75","45.47","MONTREAL/PIERRE ELLIOTT TRUDEAU INTL A","7025250","2012-03-08 12:00","2012","03","08","12:00","11.7","","4.0","","59","","22","","20","","24.1","","100.08","","","","","","Rain"
"-73.75","45.47","MONTREAL/PIERRE ELLIOTT TRUDEAU INTL A","7025250","2012-03-08 13:00","2012","03","08","13:00","11.5","","5.2","","65","","21","","20","","24.1","","99.99","","","","","","Cloudy"
"-73.75","45.47","MONTREAL/PIERRE ELLIOTT TRUDEAU INTL A","7025250","2012-03-08 14:00","2012","03","08","14:00","11.7","","5.9","","68","","23","","26","","24.1","","99.88","","","","","","Cloudy"
"-73.75","45.47","MONTREAL/PIERRE ELLIOTT TRUDEAU INTL A","7025250","2012-03-08 15:00","2012","03","08","15:00","11.7","","6.6","","71","","23","","37","","19.3","","99.82","","","","","","Rain"
"-73.75","45.47","MONTREAL/PIERRE ELLIOTT TRUDEAU INTL A","7025250","2012-03-08 16:00","2012","03","08","16:00","11.6","","6.4","","70","","22","","32","","24.1","","99.75","","","","","","Rain"
"-73.75","45.47","MONTREAL/PIERRE ELLIOTT TRUDEAU INTL A","7025250","2012-03-08 17:00","2012","03","08","17:00","11.3","","6.9","","74","","23","","37","","19.3","","99.66","","","","","","Rain"
"-73.75","45.47","MONTREAL/PIERRE ELLIOTT TRUDEAU INTL A","7025250","2012-03-08 18:00","2012","03","08","18:00","10.5","","7.8","","83","","25","","46","","6.4","","99.64","","","","","","Rain"
"-73.75","45.47","MONTREAL/PIERRE ELLIOTT TRUDEAU INTL A","7025250","2012-03-08 19:00","2012","03","08","19:00","6.1","","3.2","","82","","27","","30","","16.1","","99.78","","","","","","Rain"
"-73.75","45.47","MONTREAL/PIERRE ELLIOTT TRUDEAU INTL A","7025250","2012-03-08 20:00","2012","03","08","20:00","5.0","","1.6","","79","","25","","41","","25.0","","99.90","","","","","","Rain"
"-73.75","45.47","MONTREAL/PIERRE ELLIOTT TRUDEAU INTL A","7025250","2012-03-08 21:00","2012","03","08","21:00","3.7","","1.0","","82","","24","","41","","12.9","","100.04","","","","","","Rain"
"-73.75","45.47","MONTREAL/PIERRE ELLIOTT TRUDEAU INTL A","7025250","2012-03-08 22:00","2012","03","08","22:00","2.0","","-0.5","","83","","25","","46","","9.7","","100.13","","","","","","Rain,Fog"
"-73.75","45.47","MONTREAL/PIERRE ELLIOTT TRUDEAU INTL A","7025250","2012-03-08 23:00","2012","03","08","23:00","0.8","","-1.4","","85","","26","","35","","2.4","","100.25","","","","","","Snow"
"-73.75","45.47","MONTREAL/PIERRE ELLIOTT TRUDEAU INTL A","7025250","2012-03-09 00:00","2012","03","09","00:00","-0.1","","-2.0","","87","","27","","28","","2.8","","100.33","","","","-6","","Snow"
"-73.75","45.47","MONTREAL/PIERRE ELLIOTT TRUDEAU INTL A","7025250","2012-03-09 01:00","2012","03","09","01:00","0.0","","-3.7","","76","","28","","22","","25.0","","100.41","","","","-6","","Mostly Cloudy"
"-73.75","45.47","MONTREAL/PIERRE ELLIOTT TRUDEAU INTL A","7025250","2012-03-09 02:00","2012","03","09","02:00","-1.2","","-6.6","","67","","31","","20","","25.0","","100.62","","","","-7","","Mainly Clear"
"-73.75","45.47","MONTREAL/PIERRE ELLIOTT TRUDEAU INTL A","7025250","2012-03-09 03:00","2012","03","09","03:00","-2.6","","-8.5","","64","","31","","24","","25.0","","100.81","","","","-9","","Mainly Clear"
"-73.75","45.47","MONTREAL/PIERRE ELLIOTT TRUDEAU INTL A","7025250","2012-03-09 04:00","2012","03","09","04:00","-3.9","","-8.7","","69","","29","","11","","25.0","","100.97","","","","-8","","Mainly Clear"
"-73.75","45.47","MONTREAL/PIERRE ELLIOTT TRUDEAU INTL A","7025250","2012-03-09 05:00","2012","03","09","05:00","-3.9","","-9.1","","67","","29","","20","","25.0","","101.13","","","","-10","","Mainly Clear"
"-73.75","45.47","MONTREAL/PIERRE ELLIOTT TRUDEAU INTL A","7025250","2012-03-09 06:00","2012","03","09","06:00","-4.3","","-9.0","","70","","28","","15","","25.0","","101.26","","","","-10","","Mainly Clear"
"-73.75","45.47","MONTREAL/PIERRE ELLIOTT TRUDEAU INTL A","7025250","2012-03-09 07:00","2012","03","09","07:00","-5.0","","-9.7","","70","","27","","15","","24.1","","101.31","","","","-11","","Clear"
"-73.75","45.47","MONTREAL/PIERRE ELLIOTT TRUDEAU INTL A","7025250","2012-03-09 08:00","2012","03","09","08:00","-4.7","","-10.2","","65","","27","","15","","24.1","","101.41","","","","-10","","Clear"
"-73.75","45.47","MONTREAL/PIERRE ELLIOTT TRUDEAU INTL A","7025250","2012-03-09 09:00","2012","03","09","09:00","-4.0","","-9.5","","66","","27","","20","","24.1","","101.46","","","","-10","","Clear"
"-73.75","45.47","MONTREAL/PIERRE ELLIOTT TRUDEAU INTL A","7025250","2012-03-09 10:00","2012","03","09","10:00","-3.7","","-10.1","","61","","27","","19","","48.3","","101.48","","","","-10","","Mainly Clear"
"-73.75","45.47","MONTREAL/PIERRE ELLIOTT TRUDEAU INTL A","7025250","2012-03-09 11:00","2012","03","09","11:00","-3.0","","-10.0","","58","","24","","17","","48.3","","101.47","","","","-9","","Mainly Clear"
"-73.75","45.47","MONTREAL/PIERRE ELLIOTT TRUDEAU INTL A","7025250","2012-03-09 12:00","2012","03","09","12:00","-2.1","","-8.5","","62","","20","","20","","48.3","","101.44","","","","-8","","Mainly Clear"
"-73.75","45.47","MONTREAL/PIERRE ELLIOTT TRUDEAU INTL A","7025250","2012-03-09 13:00","2012","03","09","13:00","-1.5","","-8.8","","57","","26","","15","","48.3","","101.42","","","","-6","","Mainly Clear"
"-73.75","45.47","MONTREAL/PIERRE ELLIOTT TRUDEAU INTL A","7025250","2012-03-09 14:00","2012","03","09","14:00","-1.0","","-7.6","","61","","27","","19","","48.3","","101.43","","","","-6","","Mainly Clear"
"-73.75","45.47","MONTREAL/PIERRE ELLIOTT TRUDEAU INTL A","7025250","2012-03-09 15:00","2012","03","09","15:00","-1.1","","-7.9","","60","","28","","17","","48.3","","101.45","","","","-6","","Mostly Cloudy"
"-73.75","45.47","MONTREAL/PIERRE ELLIOTT TRUDEAU INTL A","7025250","2012-03-09 16:00","2012","03","09","16:00","-0.7","","-8.4","","56","","28","","11","","48.3","","101.44","","","","-4","","Mostly Cloudy"
"-73.75","45.47","MONTREAL/PIERRE ELLIOTT TRUDEAU INTL A","7025250","2012-03-09 17:00","2012","03","09","17:00","-0.9","","-7.9","","59","","30","","7","","48.3","","101.47","","","","-3","","Mostly Cloudy"
"-73.75","45.47","MONTREAL/PIERRE ELLIOTT TRUDEAU INTL A","7025250","2012-03-09 18:00","2012","03","09","18:00","-2.0","","-8.7","","60","","29","","7","","25.0","","101.52","","","","-5","","Mainly Clear"
"-73.75","45.47","MONTREAL/PIERRE ELLIOTT TRUDEAU INTL A","7025250","2012-03-09 19:00","2012","03","09","19:00","-2.6","","-8.2","","65","","31","","4","","25.0","","101.57","","","","-4","","Mostly Cloudy"
"-73.75","45.47","MONTREAL/PIERRE ELLIOTT TRUDEAU INTL A","7025250","2012-03-09 20:00","2012","03","09","20:00","-2.0","","-9.0","","59","","35","","4","","25.0","","101.61","","","","-3","","Mostly Cloudy"
"-73.75","45.47","MONTREAL/PIERRE ELLIOTT TRUDEAU INTL A","7025250","2012-03-09 21:00","2012","03","09","21:00","-1.9","","-8.6","","60","","35","","6","","25.0","","101.63","","","","-4","","Mostly Cloudy"
"-73.75","45.47","MONTREAL/PIERRE ELLIOTT TRUDEAU INTL A","7025250","2012-03-09 22:00","2012","03","09","22:00","-2.2","","-8.9","","60","","5","","7","","25.0","","101.64","","","","-5","","Mostly Cloudy"
"-73.75","45.47","MONTREAL/PIERRE ELLIOTT TRUDEAU INTL A","7025250","2012-03-09 23:00","2012","03","09","23:00","-2.6","","-8.6","","63","","2","","6","","25.0","","101.68","","","","-5","","Cloudy"
"-73.75","45.47","MONTREAL/PIERRE ELLIOTT TRUDEAU INTL A","7025250","2012-03-10 00:00","2012","03","10","00:00","-2.2","","-8.7","","61","","4","","4","","25.0","","101.77","","","","-4","","Cloudy"
"-73.75","45.47","MONTREAL/PIERRE ELLIOTT TRUDEAU INTL A","7025250","2012-03-10 01:00","2012","03","10","01:00","-2.7","","-8.6","","64","","1","","15","","25.0","","101.89","","","","-8","","Cloudy"
"-73.75","45.47","MONTREAL/PIERRE ELLIOTT TRUDEAU INTL A","7025250","2012-03-10 02:00","2012","03","10","02:00","-3.8","","-10.6","","59","","3","","19","","25.0","","102.01","","","","-10","","Cloudy"
"-73.75","45.47","MONTREAL/PIERRE ELLIOTT TRUDEAU INTL A","7025250","2012-03-10 03:00","2012","03","10","03:00","-4.1","","-12.7","","51","","2","","24","","25.0","","102.10","","","","-11","","Cloudy"
"-73.75","45.47","MONTREAL/PIERRE ELLIOTT TRUDEAU INTL A","7025250","2012-03-10 04:00","2012","03","10","04:00","-5.7","","-13.1","","56","","1","","26","","25.0","","102.27","","","","-13","","Mainly Clear"
"-73.75","45.47","MONTREAL/PIERRE ELLIOTT TRUDEAU INTL A","7025250","2012-03-10 05:00","2012","03","10","05:00","-6.4","","-14.0","","55","","2","","20","","25.0","","102.42","","","","-13","","Mainly Clear"
"-73.75","45.47","MONTREAL/PIERRE ELLIOTT TRUDEAU INTL A","7025250","2012-03-10 06:00","2012","03","10","06:00","-6.8","","-14.1","","56","","3","","26","","24.1","","102.60","","","","-15","","Mostly Cloudy"
"-73.75","45.47","MONTREAL/PIERRE ELLIOTT TRUDEAU INTL A","7025250","2012-03-10 07:00","2012","03","10","07:00","-7.1","","-14.6","","55","","3","","20","","48.3","","102.73","","","","-14","","Mainly Clear"
"-73.75","45.47","MONTREAL/PIERRE ELLIOTT TRUDEAU INTL A","7025250","2012-03-10 08:00","2012","03","10","08:00","-6.8","","-14.6","","54","","2","","19","","48.3","","102.84","","","","-14","","Mainly Clear"
"-73.75","45.47","MONTREAL/PIERRE ELLIOTT TRUDEAU INTL A","7025250","2012-03-10 09:00","2012","03","10","09:00","-6.3","","-14.1","","54","","1","","15","","48.3","","102.95","","","","-12","","Mostly Cloudy"
"-73.75","45.47","MONTREAL/PIERRE ELLIOTT TRUDEAU INTL A","7025250","2012-03-10 10:00","2012","03","10","10:00","-6.1","","-14.5","","51","","4","","6","","48.3","","103.01","","","","-9","","Mainly Clear"
"-73.75","45.47","MONTREAL/PIERRE ELLIOTT TRUDEAU INTL A","7025250","2012-03-10 11:00","2012","03","10","11:00","-4.0","","-13.2","","49","","","","0","","48.3","","103.02","","","","","","Mainly Clear"
"-73.75","45.47","MONTREAL/PIERRE ELLIOTT TRUDEAU INTL A","7025250","2012-03-10 12:00","2012","03","10","12:00","-4.1","","-12.1","","54","","16","","7","","48.3","","102.99","","","","-7","","Clear"
"-73.75","45.47","MONTREAL/PIERRE ELLIOTT TRUDEAU INTL A","7025250","2012-03-10 13:00","2012","03","10","13:00","-3.2","","-11.3","","53","","21","","7","","48.3","","102.89","","","","-6","","Mainly Clear"
"-73.75","45.47","MONTREAL/PIERRE ELLIOTT TRUDEAU INTL A","7025250","2012-03-10 14:00","2012","03","10","14:00","-2.6","","-11.1","","52","","20","","15","","48.3","","102.84","","","","-8","","Mostly Cloudy"
"-73.75","45.47","MONTREAL/PIERRE ELLIOTT TRUDEAU INTL A","7025250","2012-03-10 15:00","2012","03","10","15:00","-2.7","","-10.2","","56","","18","","11","","48.3","","102.75","","","","-7","","Mostly Cloudy"
"-73.75","45.47","MONTREAL/PIERRE ELLIOTT TRUDEAU INTL A","7025250","2012-03-10 16:00","2012","03","10","16:00","-1.8","","-10.3","","52","","21","","13","","48.3","","102.71","","","","-6","","Mainly Clear"
"-73.75","45.47","MONTREAL/PIERRE ELLIOTT TRUDEAU INTL A","7025250","2012-03-10 17:00","2012","03","10","17:00","-1.6","","-10.0","","53","","22","","17","","48.3","","102.68","","","","-7","","Mainly Clear"
"-73.75","45.47","MONTREAL/PIERRE ELLIOTT TRUDEAU INTL A","7025250","2012-03-10 18:00","2012","03","10","18:00","-2.1","","-10.1","","54","","23","","9","","25.0","","102.66","","","","-6","","Mainly Clear"
"-73.75","45.47","MONTREAL/PIERRE ELLIOTT TRUDEAU INTL A","7025250","2012-03-10 19:00","2012","03","10","19:00","-1.9","","-9.4","","56","","21","","9","","25.0","","102.67","","","","-5","","Mainly Clear"
"-73.75","45.47","MONTREAL/PIERRE ELLIOTT TRUDEAU INTL A","7025250","2012-03-10 20:00","2012","03","10","20:00","-2.3","","-8.0","","65","","15","","11","","25.0","","102.60","","","","-6","","Mostly Cloudy"
"-73.75","45.47","MONTREAL/PIERRE ELLIOTT TRUDEAU INTL A","7025250","2012-03-10 21:00","2012","03","10","21:00","-2.3","","-8.1","","64","","16","","11","","25.0","","102.54","","","","-6","","Mostly Cloudy"
"-73.75","45.47","MONTREAL/PIERRE ELLIOTT TRUDEAU INTL A","7025250","2012-03-10 22:00","2012","03","10","22:00","-2.0","","-7.1","","68","","16","","11","","25.0","","102.50","","","","-6","","Snow Showers"
"-73.75","45.47","MONTREAL/PIERRE ELLIOTT TRUDEAU INTL A","7025250","2012-03-10 23:00","2012","03","10","23:00","-1.7","","-7.1","","67","","20","","7","","25.0","","102.45","","","","-4","","Cloudy"
"-73.75","45.47","MONTREAL/PIERRE ELLIOTT TRUDEAU INTL A","7025250","2012-03-11 00:00","2012","03","11","00:00","-3.1","","-7.2","","73","","13","","7","","25.0","","102.36","","","","-6","","Mainly Clear"
"-73.75","45.47","MONTREAL/PIERRE ELLIOTT TRUDEAU INTL A","7025250","2012-03-11 01:00","2012","03","11","01:00","-3.2","","-6.9","","76","","12","","7","","25.0","","102.28","","","","-6","","Mainly Clear"
"-73.75","45.47","MONTREAL/PIERRE ELLIOTT TRUDEAU INTL A","7025250","2012-03-11 02:00","2012","03","11","02:00","-3.1","","-7.1","","74","","16","","7","","25.0","","102.18","","","","-6","","Mainly Clear"
"-73.75","45.47","MONTREAL/PIERRE ELLIOTT TRUDEAU INTL A","7025250","2012-03-11 03:00","2012","03","11","03:00","-2.2","","-7.0","","70","","16","","17","","25.0","","102.05","","","","-8","","Cloudy"
"-73.75","45.47","MONTREAL/PIERRE ELLIOTT TRUDEAU INTL A","7025250","2012-03-11 04:00","2012","03","11","04:00","-1.7","","-6.9","","68","","15","","13","","25.0","","102.02","","","","-6","","Cloudy"
"-73.75","45.47","MONTREAL/PIERRE ELLIOTT TRUDEAU INTL A","7025250","2012-03-11 05:00","2012","03","11","05:00","-2.1","","-7.0","","69","","15","","11","","25.0","","101.98","","","","-6","","Mainly Clear"
"-73.75","45.47","MONTREAL/PIERRE ELLIOTT TRUDEAU INTL A","7025250","2012-03-11 06:00","2012","03","11","06:00","-1.5","","-6.7","","68","","13","","7","","48.3","","101.98","","","","-4","","Cloudy"
"-73.75","45.47","MONTREAL/PIERRE ELLIOTT TRUDEAU INTL A","7025250","2012-03-11 07:00","2012","03","11","07:00","-1.8","","-6.9","","68","","15","","11","","48.3","","101.97","","","","-6","","Clear"
"-73.75","45.47","MONTREAL/PIERRE ELLIOTT TRUDEAU INTL A","7025250","2012-03-11 08:00","2012","03","11","08:00","0.1","","-6.2","","63","","14","","7","","48.3","","102.00","","","","","","Clear"
"-73.75","45.47","MONTREAL/PIERRE ELLIOTT TRUDEAU INTL A","7025250","2012-03-11 09:00","2012","03","11","09:00","2.7","","-5.9","","53","","22","","7","","48.3","","101.98","","","","","","Mainly Clear"
"-73.75","45.47","MONTREAL/PIERRE ELLIOTT TRUDEAU INTL A","7025250","2012-03-11 10:00","2012","03","11","10:00","3.8","","-5.7","","50","","23","","13","","48.3","","101.97","","","","","","Clear"
"-73.75","45.47","MONTREAL/PIERRE ELLIOTT TRUDEAU INTL A","7025250","2012-03-11 11:00","2012","03","11","11:00","5.9","","-4.2","","48","","22","","11","","48.3","","101.92","","","","","","Clear"
"-73.75","45.47","MONTREAL/PIERRE ELLIOTT TRUDEAU INTL A","7025250","2012-03-11 12:00","2012","03","11","12:00","6.8","","-3.2","","49","","22","","24","","48.3","","101.86","","","","","","Clear"
"-73.75","45.47","MONTREAL/PIERRE ELLIOTT TRUDEAU INTL A","7025250","2012-03-11 13:00","2012","03","11","13:00","9.0","","-1.9","","46","","23","","20","","48.3","","101.79","","","","","","Clear"
"-73.75","45.47","MONTREAL/PIERRE ELLIOTT TRUDEAU INTL A","7025250","2012-03-11 14:00","2012","03","11","14:00","9.5","","-1.6","","46","","24","","24","","48.3","","101.74","","","","","","Clear"
"-73.75","45.47","MONTREAL/PIERRE ELLIOTT TRUDEAU INTL A","7025250","2012-03-11 15:00","2012","03","11","15:00","10.5","","-1.3","","44","","24","","20","","48.3","","101.69","","","","","","Clear"
"-73.75","45.47","MONTREAL/PIERRE ELLIOTT TRUDEAU INTL A","7025250","2012-03-11 16:00","2012","03","11","16:00","10.9","","-0.7","","45","","23","","15","","48.3","","101.65","","","","","","Clear"
"-73.75","45.47","MONTREAL/PIERRE ELLIOTT TRUDEAU INTL A","7025250","2012-03-11 17:00","2012","03","11","17:00","10.7","","-0.6","","45","","24","","11","","48.3","","101.65","","","","","","Clear"
"-73.75","45.47","MONTREAL/PIERRE ELLIOTT TRUDEAU INTL A","7025250","2012-03-11 18:00","2012","03","11","18:00","9.1","","-1.0","","49","","23","","7","","25.0","","101.68","","","","","","Clear"
"-73.75","45.47","MONTREAL/PIERRE ELLIOTT TRUDEAU INTL A","7025250","2012-03-11 19:00","2012","03","11","19:00","7.4","","-1.2","","54","","23","","6","","25.0","","101.69","","","","","","Clear"
"-73.75","45.47","MONTREAL/PIERRE ELLIOTT TRUDEAU INTL A","7025250","2012-03-11 20:00","2012","03","11","20:00","4.8","","-1.5","","64","","23","","9","","48.3","","101.70","","","","","","Clear"
"-73.75","45.47","MONTREAL/PIERRE ELLIOTT TRUDEAU INTL A","7025250","2012-03-11 21:00","2012","03","11","21:00","4.8","","-1.6","","63","","23","","13","","25.0","","101.72","","","","","","Mainly Clear"
"-73.75","45.47","MONTREAL/PIERRE ELLIOTT TRUDEAU INTL A","7025250","2012-03-11 22:00","2012","03","11","22:00","5.2","","-1.9","","60","","22","","6","","25.0","","101.72","","","","","","Clear"
"-73.75","45.47","MONTREAL/PIERRE ELLIOTT TRUDEAU INTL A","7025250","2012-03-11 23:00","2012","03","11","23:00","6.1","","-2.0","","56","","26","","7","","25.0","","101.75","","","","","","Clear"
"-73.75","45.47","MONTREAL/PIERRE ELLIOTT TRUDEAU INTL A","7025250","2012-03-12 00:00","2012","03","12","00:00","6.0","","-1.8","","57","","26","","20","","25.0","","101.77","","","","","","Clear"
"-73.75","45.47","MONTREAL/PIERRE ELLIOTT TRUDEAU INTL A","7025250","2012-03-12 01:00","2012","03","12","01:00","5.2","","-1.8","","61","","25","","17","","25.0","","101.77","","","","","","Mainly Clear"
"-73.75","45.47","MONTREAL/PIERRE ELLIOTT TRUDEAU INTL A","7025250","2012-03-12 02:00","2012","03","12","02:00","4.6","","-2.1","","62","","24","","9","","25.0","","101.77","","","","","","Mainly Clear"
"-73.75","45.47","MONTREAL/PIERRE ELLIOTT TRUDEAU INTL A","7025250","2012-03-12 03:00","2012","03","12","03:00","1.5","","-2.8","","73","","21","","11","","25.0","","101.78","","","","","","Mainly Clear"
"-73.75","45.47","MONTREAL/PIERRE ELLIOTT TRUDEAU INTL A","7025250","2012-03-12 04:00","2012","03","12","04:00","1.8","","-2.6","","73","","22","","4","","25.0","","101.80","","","","","","Mainly Clear"
"-73.75","45.47","MONTREAL/PIERRE ELLIOTT TRUDEAU INTL A","7025250","2012-03-12 05:00","2012","03","12","05:00","2.3","","-1.9","","74","","22","","9","","25.0","","101.82","","","","","","Clear"
"-73.75","45.47","MONTREAL/PIERRE ELLIOTT TRUDEAU INTL A","7025250","2012-03-12 06:00","2012","03","12","06:00","3.1","","-1.8","","70","","22","","11","","48.3","","101.89","","","","","","Clear"
"-73.75","45.47","MONTREAL/PIERRE ELLIOTT TRUDEAU INTL A","7025250","2012-03-12 07:00","2012","03","12","07:00","2.6","","-2.3","","70","","23","","4","","48.3","","101.98","","","","","","Mainly Clear"
"-73.75","45.47","MONTREAL/PIERRE ELLIOTT TRUDEAU INTL A","7025250","2012-03-12 08:00","2012","03","12","08:00","4.4","","-1.0","","68","","27","","6","","48.3","","102.03","","","","","","Mainly Clear"
"-73.75","45.47","MONTREAL/PIERRE ELLIOTT TRUDEAU INTL A","7025250","2012-03-12 09:00","2012","03","12","09:00","6.5","","-0.2","","62","","","","0","","48.3","","102.03","","","","","","Mostly Cloudy"
"-73.75","45.47","MONTREAL/PIERRE ELLIOTT TRUDEAU INTL A","7025250","2012-03-12 10:00","2012","03","12","10:00","8.3","","0.2","","57","","3","","9","","24.1","","102.00","","","","","","Cloudy"
"-73.75","45.47","MONTREAL/PIERRE ELLIOTT TRUDEAU INTL A","7025250","2012-03-12 11:00","2012","03","12","11:00","10.6","","0.3","","49","","7","","6","","24.1","","101.99","","","","","","Cloudy"
"-73.75","45.47","MONTREAL/PIERRE ELLIOTT TRUDEAU INTL A","7025250","2012-03-12 12:00","2012","03","12","12:00","10.8","","0.4","","49","","11","","9","","48.3","","101.94","","","","","","Mostly Cloudy"
"-73.75","45.47","MONTREAL/PIERRE ELLIOTT TRUDEAU INTL A","7025250","2012-03-12 13:00","2012","03","12","13:00","11.6","","0.6","","47","","15","","13","","48.3","","101.84","","","","","","Mostly Cloudy"
"-73.75","45.47","MONTREAL/PIERRE ELLIOTT TRUDEAU INTL A","7025250","2012-03-12 14:00","2012","03","12","14:00","12.3","","1.4","","47","","14","","6","","48.3","","101.79","","","","","","Mostly Cloudy"
"-73.75","45.47","MONTREAL/PIERRE ELLIOTT TRUDEAU INTL A","7025250","2012-03-12 15:00","2012","03","12","15:00","12.4","","0.6","","44","","16","","4","","48.3","","101.71","","","","","","Cloudy"
"-73.75","45.47","MONTREAL/PIERRE ELLIOTT TRUDEAU INTL A","7025250","2012-03-12 16:00","2012","03","12","16:00","11.8","","1.2","","48","","15","","4","","25.0","","101.64","","","","","","Cloudy"
"-73.75","45.47","MONTREAL/PIERRE ELLIOTT TRUDEAU INTL A","7025250","2012-03-12 17:00","2012","03","12","17:00","11.6","","1.0","","48","","8","","6","","24.1","","101.57","","","","","","Cloudy"
"-73.75","45.47","MONTREAL/PIERRE ELLIOTT TRUDEAU INTL A","7025250","2012-03-12 18:00","2012","03","12","18:00","9.0","","1.1","","58","","3","","13","","25.0","","101.54","","","","","","Cloudy"
"-73.75","45.47","MONTREAL/PIERRE ELLIOTT TRUDEAU INTL A","7025250","2012-03-12 19:00","2012","03","12","19:00","8.7","","1.1","","59","","3","","13","","25.0","","101.50","","","","","","Cloudy"
"-73.75","45.47","MONTREAL/PIERRE ELLIOTT TRUDEAU INTL A","7025250","2012-03-12 20:00","2012","03","12","20:00","9.2","","1.4","","58","","6","","13","","25.0","","101.44","","","","","","Cloudy"
"-73.75","45.47","MONTREAL/PIERRE ELLIOTT TRUDEAU INTL A","7025250","2012-03-12 21:00","2012","03","12","21:00","8.4","","1.0","","60","","4","","13","","25.0","","101.39","","","","","","Mostly Cloudy"
"-73.75","45.47","MONTREAL/PIERRE ELLIOTT TRUDEAU INTL A","7025250","2012-03-12 22:00","2012","03","12","22:00","7.9","","0.7","","60","","4","","11","","25.0","","101.35","","","","","","Mostly Cloudy"
"-73.75","45.47","MONTREAL/PIERRE ELLIOTT TRUDEAU INTL A","7025250","2012-03-12 23:00","2012","03","12","23:00","6.6","","-0.3","","61","","2","","11","","25.0","","101.22","","","","","","Mostly Cloudy"
"-73.75","45.47","MONTREAL/PIERRE ELLIOTT TRUDEAU INTL A","7025250","2012-03-13 00:00","2012","03","13","00:00","7.5","","-0.7","","56","","5","","13","","25.0","","101.11","","","","","","Mostly Cloudy"
"-73.75","45.47","MONTREAL/PIERRE ELLIOTT TRUDEAU INTL A","7025250","2012-03-13 01:00","2012","03","13","01:00","5.1","","-0.9","","65","","3","","13","","25.0","","101.07","","","","","","Rain Showers"
"-73.75","45.47","MONTREAL/PIERRE ELLIOTT TRUDEAU INTL A","7025250","2012-03-13 02:00","2012","03","13","02:00","4.8","","-1.0","","66","","36","","6","","25.0","","101.05","","","","","","Rain Showers"
"-73.75","45.47","MONTREAL/PIERRE ELLIOTT TRUDEAU INTL A","7025250","2012-03-13 03:00","2012","03","13","03:00","4.6","","-0.2","","71","","3","","15","","25.0","","100.87","","","","","","Cloudy"
"-73.75","45.47","MONTREAL/PIERRE ELLIOTT TRUDEAU INTL A","7025250","2012-03-13 04:00","2012","03","13","04:00","6.5","","1.1","","68","","8","","7","","25.0","","100.74","","","","","","Cloudy"
"-73.75","45.47","MONTREAL/PIERRE ELLIOTT TRUDEAU INTL A","7025250","2012-03-13 05:00","2012","03","13","05:00","5.8","","1.1","","72","","4","","6","","25.0","","100.71","","","","","","Cloudy"
"-73.75","45.47","MONTREAL/PIERRE ELLIOTT TRUDEAU INTL A","7025250","2012-03-13 06:00","2012","03","13","06:00","7.4","","1.8","","68","","9","","9","","19.3","","100.60","","","","","","Cloudy"
"-73.75","45.47","MONTREAL/PIERRE ELLIOTT TRUDEAU INTL A","7025250","2012-03-13 07:00","2012","03","13","07:00","4.0","","1.0","","81","","36","","11","","9.7","","100.61","","","","","","Rain,Haze"
"-73.75","45.47","MONTREAL/PIERRE ELLIOTT TRUDEAU INTL A","7025250","2012-03-13 08:00","2012","03","13","08:00","5.5","","2.9","","83","","5","","7","","6.4","","100.50","","","","","","Rain,Haze"
"-73.75","45.47","MONTREAL/PIERRE ELLIOTT TRUDEAU INTL A","7025250","2012-03-13 09:00","2012","03","13","09:00","4.4","","2.3","","86","","32","","17","","4.0","","100.51","","","","","","Rain,Haze"
"-73.75","45.47","MONTREAL/PIERRE ELLIOTT TRUDEAU INTL A","7025250","2012-03-13 10:00","2012","03","13","10:00","3.5","","1.5","","87","","36","","11","","2.4","","100.54","","","","","","Drizzle,Fog"
"-73.75","45.47","MONTREAL/PIERRE ELLIOTT TRUDEAU INTL A","7025250","2012-03-13 11:00","2012","03","13","11:00","3.5","","1.6","","87","","36","","11","","4.8","","100.57","","","","","","Drizzle,Fog"
"-73.75","45.47","MONTREAL/PIERRE ELLIOTT TRUDEAU INTL A","7025250","2012-03-13 12:00","2012","03","13","12:00","3.9","","2.2","","89","","2","","9","","4.8","","100.64","","","","","","Fog"
"-73.75","45.47","MONTREAL/PIERRE ELLIOTT TRUDEAU INTL A","7025250","2012-03-13 13:00","2012","03","13","13:00","4.9","","3.0","","87","","4","","7","","6.4","","100.63","","","","","","Fog"
"-73.75","45.47","MONTREAL/PIERRE ELLIOTT TRUDEAU INTL A","7025250","2012-03-13 14:00","2012","03","13","14:00","6.5","","4.5","","87","","3","","7","","6.4","","100.61","","","","","","Fog"
"-73.75","45.47","MONTREAL/PIERRE ELLIOTT TRUDEAU INTL A","7025250","2012-03-13 15:00","2012","03","13","15:00","5.3","","3.3","","87","","3","","11","","8.0","","100.63","","","","","","Fog"
"-73.75","45.47","MONTREAL/PIERRE ELLIOTT TRUDEAU INTL A","7025250","2012-03-13 16:00","2012","03","13","16:00","5.5","","2.8","","83","","3","","11","","8.0","","100.67","","","","","","Haze"
"-73.75","45.47","MONTREAL/PIERRE ELLIOTT TRUDEAU INTL A","7025250","2012-03-13 17:00","2012","03","13","17:00","4.9","","2.2","","83","","4","","17","","8.0","","100.68","","","","","","Haze"
"-73.75","45.47","MONTREAL/PIERRE ELLIOTT TRUDEAU INTL A","7025250","2012-03-13 18:00","2012","03","13","18:00","4.0","","1.5","","84","","5","","13","","8.0","","100.73","","","","","","Haze"
"-73.75","45.47","MONTREAL/PIERRE ELLIOTT TRUDEAU INTL A","7025250","2012-03-13 19:00","2012","03","13","19:00","3.1","","0.9","","85","","4","","17","","6.4","","100.79","","","","","","Drizzle,Fog"
"-73.75","45.47","MONTREAL/PIERRE ELLIOTT TRUDEAU INTL A","7025250","2012-03-13 20:00","2012","03","13","20:00","2.6","","0.3","","85","","6","","17","","6.4","","100.77","","","","","","Haze"
"-73.75","45.47","MONTREAL/PIERRE ELLIOTT TRUDEAU INTL A","7025250","2012-03-13 21:00","2012","03","13","21:00","1.1","","-1.0","","86","","3","","20","","4.8","","100.87","","","","","","Rain,Fog"
"-73.75","45.47","MONTREAL/PIERRE ELLIOTT TRUDEAU INTL A","7025250","2012-03-13 22:00","2012","03","13","22:00","1.4","","-0.7","","86","","3","","6","","6.4","","100.93","","","","","","Haze"
"-73.75","45.47","MONTREAL/PIERRE ELLIOTT TRUDEAU INTL A","7025250","2012-03-13 23:00","2012","03","13","23:00","1.1","","-0.9","","86","","2","","9","","4.8","","100.98","","","","","","Haze"
"-73.75","45.47","MONTREAL/PIERRE ELLIOTT TRUDEAU INTL A","7025250","2012-03-14 00:00","2012","03","14","00:00","0.7","","-1.0","","88","","2","","7","","3.2","","101.02","","","","","","Fog"
"-73.75","45.47","MONTREAL/PIERRE ELLIOTT TRUDEAU INTL A","7025250","2012-03-14 01:00","2012","03","14","01:00","0.7","","-0.9","","89","","1","","7","","1.0","","101.06","","","","","","Fog"
"-73.75","45.47","MONTREAL/PIERRE ELLIOTT TRUDEAU INTL A","7025250","2012-03-14 02:00","2012","03","14","02:00","0.6","","-1.0","","89","","3","","7","","0.8","","101.05","","","","","","Fog"
"-73.75","45.47","MONTREAL/PIERRE ELLIOTT TRUDEAU INTL A","7025250","2012-03-14 03:00","2012","03","14","03:00","0.8","","-0.3","","92","","1","","6","","0.6","","101.06","","","","","","Fog"
"-73.75","45.47","MONTREAL/PIERRE ELLIOTT TRUDEAU INTL A","7025250","2012-03-14 04:00","2012","03","14","04:00","0.8","","-0.6","","90","","2","","4","","0.6","","101.13","","","","","","Fog"
"-73.75","45.47","MONTREAL/PIERRE ELLIOTT TRUDEAU INTL A","7025250","2012-03-14 05:00","2012","03","14","05:00","0.7","","-0.9","","89","","36","","6","","0.6","","101.23","","","","","","Fog"
"-73.75","45.47","MONTREAL/PIERRE ELLIOTT TRUDEAU INTL A","7025250","2012-03-14 06:00","2012","03","14","06:00","0.6","","-0.9","","90","","36","","7","","0.6","","101.28","","","","","","Fog"
"-73.75","45.47","MONTREAL/PIERRE ELLIOTT TRUDEAU INTL A","7025250","2012-03-14 07:00","2012","03","14","07:00","0.8","","-0.4","","92","","1","","6","","2.4","","101.36","","","","","","Fog"
"-73.75","45.47","MONTREAL/PIERRE ELLIOTT TRUDEAU INTL A","7025250","2012-03-14 08:00","2012","03","14","08:00","1.1","","-0.1","","92","","35","","6","","3.2","","101.46","","","","","","Rain,Fog"
"-73.75","45.47","MONTREAL/PIERRE ELLIOTT TRUDEAU INTL A","7025250","2012-03-14 09:00","2012","03","14","09:00","1.6","","0.4","","92","","36","","7","","4.8","","101.51","","","","","","Rain,Fog"
"-73.75","45.47","MONTREAL/PIERRE ELLIOTT TRUDEAU INTL A","7025250","2012-03-14 10:00","2012","03","14","10:00","1.1","","0.5","","96","","4","","7","","2.4","","101.57","","","","","","Snow,Fog"
"-73.75","45.47","MONTREAL/PIERRE ELLIOTT TRUDEAU INTL A","7025250","2012-03-14 11:00","2012","03","14","11:00","0.4","","0.1","","98","","4","","6","","1.6","","101.60","","","","","","Snow,Fog"
"-73.75","45.47","MONTREAL/PIERRE ELLIOTT TRUDEAU INTL A","7025250","2012-03-14 12:00","2012","03","14","12:00","1.0","","0.8","","99","","6","","4","","2.0","","101.65","","","","","","Snow,Fog"
"-73.75","45.47","MONTREAL/PIERRE ELLIOTT TRUDEAU INTL A","7025250","2012-03-14 13:00","2012","03","14","13:00","2.1","","1.8","","98","","10","","4","","4.8","","101.67","","","","","","Rain,Fog"
"-73.75","45.47","MONTREAL/PIERRE ELLIOTT TRUDEAU INTL A","7025250","2012-03-14 14:00","2012","03","14","14:00","2.2","","1.8","","97","","2","","7","","8.0","","101.70","","","","","","Drizzle,Fog"
"-73.75","45.47","MONTREAL/PIERRE ELLIOTT TRUDEAU INTL A","7025250","2012-03-14 15:00","2012","03","14","15:00","1.7","","1.3","","97","","3","","13","","4.8","","101.77","","","","","","Drizzle,Fog"
"-73.75","45.47","MONTREAL/PIERRE ELLIOTT TRUDEAU INTL A","7025250","2012-03-14 16:00","2012","03","14","16:00","1.5","","1.2","","98","","2","","13","","8.0","","101.82","","","","","","Drizzle,Fog"
"-73.75","45.47","MONTREAL/PIERRE ELLIOTT TRUDEAU INTL A","7025250","2012-03-14 17:00","2012","03","14","17:00","1.0","","0.6","","97","","2","","15","","9.7","","101.89","","","","","","Fog"
"-73.75","45.47","MONTREAL/PIERRE ELLIOTT TRUDEAU INTL A","7025250","2012-03-14 18:00","2012","03","14","18:00","0.5","","0.1","","97","","3","","17","","9.7","","101.99","","","","","","Drizzle,Fog"
"-73.75","45.47","MONTREAL/PIERRE ELLIOTT TRUDEAU INTL A","7025250","2012-03-14 19:00","2012","03","14","19:00","0.3","","-0.2","","96","","3","","15","","8.0","","102.07","","","","","","Snow,Fog"
"-73.75","45.47","MONTREAL/PIERRE ELLIOTT TRUDEAU INTL A","7025250","2012-03-14 20:00","2012","03","14","20:00","0.2","","-0.5","","95","","4","","15","","12.9","","102.13","","","","","","Cloudy"
"-73.75","45.47","MONTREAL/PIERRE ELLIOTT TRUDEAU INTL A","7025250","2012-03-14 21:00","2012","03","14","21:00","-0.1","","-0.9","","94","","2","","17","","12.9","","102.17","","","","-5","","Cloudy"
"-73.75","45.47","MONTREAL/PIERRE ELLIOTT TRUDEAU INTL A","7025250","2012-03-14 22:00","2012","03","14","22:00","-0.3","","-1.3","","93","","3","","20","","12.9","","102.18","","","","-6","","Cloudy"
"-73.75","45.47","MONTREAL/PIERRE ELLIOTT TRUDEAU INTL A","7025250","2012-03-14 23:00","2012","03","14","23:00","-0.6","","-1.6","","93","","3","","15","","12.9","","102.23","","","","-5","","Cloudy"
"-73.75","45.47","MONTREAL/PIERRE ELLIOTT TRUDEAU INTL A","7025250","2012-03-15 00:00","2012","03","15","00:00","-0.6","","-1.7","","92","","3","","19","","12.9","","102.24","","","","-6","","Cloudy"
"-73.75","45.47","MONTREAL/PIERRE ELLIOTT TRUDEAU INTL A","7025250","2012-03-15 01:00","2012","03","15","01:00","-0.6","","-1.7","","92","","3","","19","","12.9","","102.27","","","","-6","","Cloudy"
"-73.75","45.47","MONTREAL/PIERRE ELLIOTT TRUDEAU INTL A","7025250","2012-03-15 02:00","2012","03","15","02:00","-0.4","","-1.5","","92","","4","","13","","12.9","","102.29","","","","-5","","Cloudy"
"-73.75","45.47","MONTREAL/PIERRE ELLIOTT TRUDEAU INTL A","7025250","2012-03-15 03:00","2012","03","15","03:00","-0.3","","-1.5","","92","","4","","11","","12.9","","102.25","","","","-4","","Cloudy"
"-73.75","45.47","MONTREAL/PIERRE ELLIOTT TRUDEAU INTL A","7025250","2012-03-15 04:00","2012","03","15","04:00","-0.2","","-1.3","","92","","5","","17","","12.9","","102.26","","","","-5","","Cloudy"
"-73.75","45.47","MONTREAL/PIERRE ELLIOTT TRUDEAU INTL A","7025250","2012-03-15 05:00","2012","03","15","05:00","-0.3","","-1.5","","92","","4","","15","","12.9","","102.34","","","","-5","","Cloudy"
"-73.75","45.47","MONTREAL/PIERRE ELLIOTT TRUDEAU INTL A","7025250","2012-03-15 06:00","2012","03","15","06:00","-0.3","","-1.6","","91","","5","","20","","16.1","","102.36","","","","-6","","Cloudy"
"-73.75","45.47","MONTREAL/PIERRE ELLIOTT TRUDEAU INTL A","7025250","2012-03-15 07:00","2012","03","15","07:00","-0.5","","-1.9","","90","","6","","13","","16.1","","102.40","","","","-5","","Cloudy"
"-73.75","45.47","MONTREAL/PIERRE ELLIOTT TRUDEAU INTL A","7025250","2012-03-15 08:00","2012","03","15","08:00","-0.5","","-2.1","","89","","5","","17","","19.3","","102.42","","","","-5","","Cloudy"
"-73.75","45.47","MONTREAL/PIERRE ELLIOTT TRUDEAU INTL A","7025250","2012-03-15 09:00","2012","03","15","09:00","-0.3","","-2.0","","88","","4","","20","","16.1","","102.39","","","","-6","","Cloudy"
"-73.75","45.47","MONTREAL/PIERRE ELLIOTT TRUDEAU INTL A","7025250","2012-03-15 10:00","2012","03","15","10:00","0.4","","-1.6","","86","","5","","22","","19.3","","102.31","","","","","","Cloudy"
"-73.75","45.47","MONTREAL/PIERRE ELLIOTT TRUDEAU INTL A","7025250","2012-03-15 11:00","2012","03","15","11:00","1.1","","-1.3","","84","","6","","19","","24.1","","102.23","","","","","","Cloudy"
"-73.75","45.47","MONTREAL/PIERRE ELLIOTT TRUDEAU INTL A","7025250","2012-03-15 12:00","2012","03","15","12:00","2.2","","-0.7","","81","","5","","19","","24.1","","102.18","","","","","","Cloudy"
"-73.75","45.47","MONTREAL/PIERRE ELLIOTT TRUDEAU INTL A","7025250","2012-03-15 13:00","2012","03","15","13:00","3.4","","0.0","","78","","4","","22","","24.1","","102.12","","","","","","Cloudy"
"-73.75","45.47","MONTREAL/PIERRE ELLIOTT TRUDEAU INTL A","7025250","2012-03-15 14:00","2012","03","15","14:00","3.4","","-0.1","","78","","5","","22","","24.1","","102.05","","","","","","Cloudy"
"-73.75","45.47","MONTREAL/PIERRE ELLIOTT TRUDEAU INTL A","7025250","2012-03-15 15:00","2012","03","15","15:00","4.0","","0.6","","78","","5","","24","","24.1","","102.00","","","","","","Mostly Cloudy"
"-73.75","45.47","MONTREAL/PIERRE ELLIOTT TRUDEAU INTL A","7025250","2012-03-15 16:00","2012","03","15","16:00","3.5","","0.1","","78","","4","","20","","24.1","","101.99","","","","","","Mostly Cloudy"
"-73.75","45.47","MONTREAL/PIERRE ELLIOTT TRUDEAU INTL A","7025250","2012-03-15 17:00","2012","03","15","17:00","3.0","","-0.3","","79","","4","","26","","24.1","","101.98","","","","","","Mostly Cloudy"
"-73.75","45.47","MONTREAL/PIERRE ELLIOTT TRUDEAU INTL A","7025250","2012-03-15 18:00","2012","03","15","18:00","2.6","","-0.3","","81","","5","","22","","24.1","","101.98","","","","","","Rain Showers"
"-73.75","45.47","MONTREAL/PIERRE ELLIOTT TRUDEAU INTL A","7025250","2012-03-15 19:00","2012","03","15","19:00","2.4","","-0.4","","82","","5","","28","","25.0","","101.88","","","","","","Mostly Cloudy"
"-73.75","45.47","MONTREAL/PIERRE ELLIOTT TRUDEAU INTL A","7025250","2012-03-15 20:00","2012","03","15","20:00","2.3","","-0.2","","84","","4","","24","","25.0","","101.86","","","","","","Mostly Cloudy"
"-73.75","45.47","MONTREAL/PIERRE ELLIOTT TRUDEAU INTL A","7025250","2012-03-15 21:00","2012","03","15","21:00","2.0","","0.4","","89","","5","","28","","25.0","","101.80","","","","","","Rain Showers"
"-73.75","45.47","MONTREAL/PIERRE ELLIOTT TRUDEAU INTL A","7025250","2012-03-15 22:00","2012","03","15","22:00","2.1","","0.5","","89","","3","","20","","25.0","","101.77","","","","","","Mostly Cloudy"
"-73.75","45.47","MONTREAL/PIERRE ELLIOTT TRUDEAU INTL A","7025250","2012-03-15 23:00","2012","03","15","23:00","1.8","","0.2","","89","","4","","19","","25.0","","101.70","","","","","","Mostly Cloudy"
"-73.75","45.47","MONTREAL/PIERRE ELLIOTT TRUDEAU INTL A","7025250","2012-03-16 00:00","2012","03","16","00:00","1.8","","0.4","","90","","3","","19","","25.0","","101.67","","","","","","Cloudy"
"-73.75","45.47","MONTREAL/PIERRE ELLIOTT TRUDEAU INTL A","7025250","2012-03-16 01:00","2012","03","16","01:00","1.9","","0.6","","91","","4","","15","","25.0","","101.54","","","","","","Rain Showers"
"-73.75","45.47","MONTREAL/PIERRE ELLIOTT TRUDEAU INTL A","7025250","2012-03-16 02:00","2012","03","16","02:00","1.1","","0.2","","94","","3","","17","","12.9","","101.56","","","","","","Rain"
"-73.75","45.47","MONTREAL/PIERRE ELLIOTT TRUDEAU INTL A","7025250","2012-03-16 03:00","2012","03","16","03:00","1.1","","0.5","","96","","3","","19","","6.4","","101.46","","","","","","Rain"
"-73.75","45.47","MONTREAL/PIERRE ELLIOTT TRUDEAU INTL A","7025250","2012-03-16 04:00","2012","03","16","04:00","1.0","","0.5","","96","","3","","17","","4.8","","101.39","","","","","","Rain"
"-73.75","45.47","MONTREAL/PIERRE ELLIOTT TRUDEAU INTL A","7025250","2012-03-16 05:00","2012","03","16","05:00","0.7","","0.3","","97","","2","","20","","4.8","","101.36","","","","","","Rain"
"-73.75","45.47","MONTREAL/PIERRE ELLIOTT TRUDEAU INTL A","7025250","2012-03-16 06:00","2012","03","16","06:00","0.6","","0.2","","97","","2","","24","","6.4","","101.39","","","","","","Rain,Fog"
"-73.75","45.47","MONTREAL/PIERRE ELLIOTT TRUDEAU INTL A","7025250","2012-03-16 07:00","2012","03","16","07:00","1.1","","0.6","","96","","3","","19","","4.8","","101.37","","","","","","Rain,Fog"
"-73.75","45.47","MONTREAL/PIERRE ELLIOTT TRUDEAU INTL A","7025250","2012-03-16 08:00","2012","03","16","08:00","1.1","","0.7","","97","","1","","15","","4.0","","101.38","","","","","","Rain,Fog"
"-73.75","45.47","MONTREAL/PIERRE ELLIOTT TRUDEAU INTL A","7025250","2012-03-16 09:00","2012","03","16","09:00","1.1","","0.7","","97","","36","","17","","4.0","","101.41","","","","","","Rain,Fog"
"-73.75","45.47","MONTREAL/PIERRE ELLIOTT TRUDEAU INTL A","7025250","2012-03-16 10:00","2012","03","16","10:00","1.5","","1.1","","97","","5","","13","","4.8","","101.41","","","","","","Rain,Fog"
"-73.75","45.47","MONTREAL/PIERRE ELLIOTT TRUDEAU INTL A","7025250","2012-03-16 11:00","2012","03","16","11:00","1.8","","1.3","","96","","1","","13","","8.0","","101.40","","","","","","Rain,Fog"
"-73.75","45.47","MONTREAL/PIERRE ELLIOTT TRUDEAU INTL A","7025250","2012-03-16 12:00","2012","03","16","12:00","2.5","","2.0","","96","","35","","6","","8.0","","101.42","","","","","","Fog"
"-73.75","45.47","MONTREAL/PIERRE ELLIOTT TRUDEAU INTL A","7025250","2012-03-16 13:00","2012","03","16","13:00","3.3","","2.8","","97","","33","","6","","9.7","","101.38","","","","","","Fog"
"-73.75","45.47","MONTREAL/PIERRE ELLIOTT TRUDEAU INTL A","7025250","2012-03-16 14:00","2012","03","16","14:00","4.0","","3.2","","95","","34","","11","","9.7","","101.40","","","","","","Fog"
"-73.75","45.47","MONTREAL/PIERRE ELLIOTT TRUDEAU INTL A","7025250","2012-03-16 15:00","2012","03","16","15:00","3.7","","3.2","","97","","33","","7","","6.4","","101.48","","","","","","Fog"
"-73.75","45.47","MONTREAL/PIERRE ELLIOTT TRUDEAU INTL A","7025250","2012-03-16 16:00","2012","03","16","16:00","4.3","","3.5","","95","","28","","4","","8.0","","101.53","","","","","","Fog"
"-73.75","45.47","MONTREAL/PIERRE ELLIOTT TRUDEAU INTL A","7025250","2012-03-16 17:00","2012","03","16","17:00","4.1","","3.2","","94","","24","","7","","8.0","","101.61","","","","","","Fog"
"-73.75","45.47","MONTREAL/PIERRE ELLIOTT TRUDEAU INTL A","7025250","2012-03-16 18:00","2012","03","16","18:00","3.8","","3.2","","96","","23","","7","","4.8","","101.71","","","","","","Drizzle,Fog"
"-73.75","45.47","MONTREAL/PIERRE ELLIOTT TRUDEAU INTL A","7025250","2012-03-16 19:00","2012","03","16","19:00","3.8","","3.2","","96","","","","0","","3.2","","101.77","","","","","","Drizzle,Fog"
"-73.75","45.47","MONTREAL/PIERRE ELLIOTT TRUDEAU INTL A","7025250","2012-03-16 20:00","2012","03","16","20:00","3.7","","3.3","","97","","","","0","","2.0","","101.93","","","","","","Drizzle,Fog"
"-73.75","45.47","MONTREAL/PIERRE ELLIOTT TRUDEAU INTL A","7025250","2012-03-16 21:00","2012","03","16","21:00","4.0","","3.7","","98","","11","","7","","3.2","","101.93","","","","","","Drizzle,Fog"
"-73.75","45.47","MONTREAL/PIERRE ELLIOTT TRUDEAU INTL A","7025250","2012-03-16 22:00","2012","03","16","22:00","3.8","","3.4","","97","","","","0","","6.4","","102.04","","","","","","Drizzle,Fog"
"-73.75","45.47","MONTREAL/PIERRE ELLIOTT TRUDEAU INTL A","7025250","2012-03-16 23:00","2012","03","16","23:00","3.7","","3.3","","97","","","","0","","3.2","","102.07","","","","","","Drizzle,Fog"
"-73.75","45.47","MONTREAL/PIERRE ELLIOTT TRUDEAU INTL A","7025250","2012-03-17 00:00","2012","03","17","00:00","3.8","","3.5","","98","","29","","4","","1.6","","102.05","","","","","","Drizzle,Fog"
"-73.75","45.47","MONTREAL/PIERRE ELLIOTT TRUDEAU INTL A","7025250","2012-03-17 01:00","2012","03","17","01:00","3.0","","2.7","","98","","24","","6","","0.6","","102.05","","","","","","Fog"
"-73.75","45.47","MONTREAL/PIERRE ELLIOTT TRUDEAU INTL A","7025250","2012-03-17 02:00","2012","03","17","02:00","2.7","","2.5","","99","","27","","4","","0.2","","102.09","","","","","","Fog"
"-73.75","45.47","MONTREAL/PIERRE ELLIOTT TRUDEAU INTL A","7025250","2012-03-17 03:00","2012","03","17","03:00","1.8","","1.6","","99","","34","","4","","0.2","","102.10","","","","","","Fog"
"-73.75","45.47","MONTREAL/PIERRE ELLIOTT TRUDEAU INTL A","7025250","2012-03-17 04:00","2012","03","17","04:00","0.3","","0.1","","99","","","","0","","0.2","","102.15","","","","","","Fog"
"-73.75","45.47","MONTREAL/PIERRE ELLIOTT TRUDEAU INTL A","7025250","2012-03-17 05:00","2012","03","17","05:00","-0.1","","-0.3","","99","","","","0","","0.8","","102.20","","","","","","Freezing Fog"
"-73.75","45.47","MONTREAL/PIERRE ELLIOTT TRUDEAU INTL A","7025250","2012-03-17 06:00","2012","03","17","06:00","-0.1","","-0.4","","98","","27","","4","","0.2","","102.26","","","","-1","","Freezing Fog"
"-73.75","45.47","MONTREAL/PIERRE ELLIOTT TRUDEAU INTL A","7025250","2012-03-17 07:00","2012","03","17","07:00","0.5","","0.4","","99","","","","0","","0.2","","102.34","","","","","","Fog"
"-73.75","45.47","MONTREAL/PIERRE ELLIOTT TRUDEAU INTL A","7025250","2012-03-17 08:00","2012","03","17","08:00","1.0","","0.9","","99","","","","0","","0.2","","102.39","","","","","","Fog"
"-73.75","45.47","MONTREAL/PIERRE ELLIOTT TRUDEAU INTL A","7025250","2012-03-17 09:00","2012","03","17","09:00","1.6","","1.5","","99","","17","","4","","0.2","","102.38","","","","","","Fog"
"-73.75","45.47","MONTREAL/PIERRE ELLIOTT TRUDEAU INTL A","7025250","2012-03-17 10:00","2012","03","17","10:00","2.6","","2.6","","100","","","","0","","0.2","","102.37","","","","","","Fog"
"-73.75","45.47","MONTREAL/PIERRE ELLIOTT TRUDEAU INTL A","7025250","2012-03-17 11:00","2012","03","17","11:00","4.1","","3.8","","98","","16","","4","","0.6","","102.34","","","","","","Fog"
"-73.75","45.47","MONTREAL/PIERRE ELLIOTT TRUDEAU INTL A","7025250","2012-03-17 12:00","2012","03","17","12:00","5.7","","5.3","","97","","14","","4","","9.7","","102.32","","","","","","Fog"
"-73.75","45.47","MONTREAL/PIERRE ELLIOTT TRUDEAU INTL A","7025250","2012-03-17 13:00","2012","03","17","13:00","8.1","","6.2","","88","","13","","7","","16.1","","102.18","","","","","","Cloudy"
"-73.75","45.47","MONTREAL/PIERRE ELLIOTT TRUDEAU INTL A","7025250","2012-03-17 14:00","2012","03","17","14:00","9.2","","4.3","","71","","9","","7","","24.1","","102.13","","","","","","Cloudy"
"-73.75","45.47","MONTREAL/PIERRE ELLIOTT TRUDEAU INTL A","7025250","2012-03-17 15:00","2012","03","17","15:00","10.2","","4.4","","67","","10","","6","","24.1","","102.07","","","","","","Cloudy"
"-73.75","45.47","MONTREAL/PIERRE ELLIOTT TRUDEAU INTL A","7025250","2012-03-17 16:00","2012","03","17","16:00","10.5","","4.1","","65","","10","","7","","48.3","","102.02","","","","","","Cloudy"
"-73.75","45.47","MONTREAL/PIERRE ELLIOTT TRUDEAU INTL A","7025250","2012-03-17 17:00","2012","03","17","17:00","10.1","","4.7","","69","","13","","9","","48.3","","101.97","","","","","","Cloudy"
"-73.75","45.47","MONTREAL/PIERRE ELLIOTT TRUDEAU INTL A","7025250","2012-03-17 18:00","2012","03","17","18:00","10.1","","5.4","","73","","16","","7","","48.3","","101.95","","","","","","Cloudy"
"-73.75","45.47","MONTREAL/PIERRE ELLIOTT TRUDEAU INTL A","7025250","2012-03-17 19:00","2012","03","17","19:00","9.8","","5.9","","77","","10","","6","","25.0","","101.93","","","","","","Cloudy"
"-73.75","45.47","MONTREAL/PIERRE ELLIOTT TRUDEAU INTL A","7025250","2012-03-17 20:00","2012","03","17","20:00","9.3","","5.2","","76","","","","0","","25.0","","101.92","","","","","","Cloudy"
"-73.75","45.47","MONTREAL/PIERRE ELLIOTT TRUDEAU INTL A","7025250","2012-03-17 21:00","2012","03","17","21:00","8.8","","5.5","","80","","3","","4","","25.0","","101.80","","","","","","Mostly Cloudy"
"-73.75","45.47","MONTREAL/PIERRE ELLIOTT TRUDEAU INTL A","7025250","2012-03-17 22:00","2012","03","17","22:00","7.7","","4.9","","82","","","","0","","25.0","","101.77","","","","","","Mainly Clear"
"-73.75","45.47","MONTREAL/PIERRE ELLIOTT TRUDEAU INTL A","7025250","2012-03-17 23:00","2012","03","17","23:00","6.7","","4.7","","87","","36","","7","","25.0","","101.78","","","","","","Mainly Clear"
"-73.75","45.47","MONTREAL/PIERRE ELLIOTT TRUDEAU INTL A","7025250","2012-03-18 00:00","2012","03","18","00:00","3.8","","2.8","","93","","34","","4","","25.0","","101.75","","","","","","Mainly Clear"
"-73.75","45.47","MONTREAL/PIERRE ELLIOTT TRUDEAU INTL A","7025250","2012-03-18 01:00","2012","03","18","01:00","5.2","","3.5","","89","","","","0","","25.0","","101.74","","","","","","Mostly Cloudy"
"-73.75","45.47","MONTREAL/PIERRE ELLIOTT TRUDEAU INTL A","7025250","2012-03-18 02:00","2012","03","18","02:00","4.3","","3.0","","91","","20","","6","","25.0","","101.71","","","","","","Mainly Clear"
"-73.75","45.47","MONTREAL/PIERRE ELLIOTT TRUDEAU INTL A","7025250","2012-03-18 03:00","2012","03","18","03:00","3.9","","2.4","","90","","21","","7","","25.0","","101.66","","","","","","Clear"
"-73.75","45.47","MONTREAL/PIERRE ELLIOTT TRUDEAU INTL A","7025250","2012-03-18 04:00","2012","03","18","04:00","3.2","","2.3","","94","","20","","6","","25.0","","101.69","","","","","","Clear"
"-73.75","45.47","MONTREAL/PIERRE ELLIOTT TRUDEAU INTL A","7025250","2012-03-18 05:00","2012","03","18","05:00","3.5","","2.4","","92","","22","","6","","25.0","","101.70","","","","","","Clear"
"-73.75","45.47","MONTREAL/PIERRE ELLIOTT TRUDEAU INTL A","7025250","2012-03-18 06:00","2012","03","18","06:00","3.6","","2.6","","93","","16","","7","","24.1","","101.72","","","","","","Clear"
"-73.75","45.47","MONTREAL/PIERRE ELLIOTT TRUDEAU INTL A","7025250","2012-03-18 07:00","2012","03","18","07:00","5.1","","3.7","","91","","20","","4","","48.3","","101.78","","","","","","Mainly Clear"
"-73.75","45.47","MONTREAL/PIERRE ELLIOTT TRUDEAU INTL A","7025250","2012-03-18 08:00","2012","03","18","08:00","8.8","","5.8","","81","","19","","11","","48.3","","101.79","","","","","","Mainly Clear"
"-73.75","45.47","MONTREAL/PIERRE ELLIOTT TRUDEAU INTL A","7025250","2012-03-18 09:00","2012","03","18","09:00","10.4","","6.6","","77","","20","","11","","48.3","","101.81","","","","","","Mainly Clear"
"-73.75","45.47","MONTREAL/PIERRE ELLIOTT TRUDEAU INTL A","7025250","2012-03-18 10:00","2012","03","18","10:00","11.9","","6.7","","70","","21","","13","","48.3","","101.78","","","","","","Mainly Clear"
"-73.75","45.47","MONTREAL/PIERRE ELLIOTT TRUDEAU INTL A","7025250","2012-03-18 11:00","2012","03","18","11:00","14.1","","7.6","","65","","20","","13","","48.3","","101.71","","","","","","Clear"
"-73.75","45.47","MONTREAL/PIERRE ELLIOTT TRUDEAU INTL A","7025250","2012-03-18 12:00","2012","03","18","12:00","17.3","","8.7","","57","","20","","11","","48.3","","101.63","","","","","","Clear"
"-73.75","45.47","MONTREAL/PIERRE ELLIOTT TRUDEAU INTL A","7025250","2012-03-18 13:00","2012","03","18","13:00","20.0","","9.9","","52","","23","","15","","48.3","","101.55","","","","","","Mainly Clear"
"-73.75","45.47","MONTREAL/PIERRE ELLIOTT TRUDEAU INTL A","7025250","2012-03-18 14:00","2012","03","18","14:00","21.7","","10.5","","49","","22","","13","","48.3","","101.45","","","","","","Mainly Clear"
"-73.75","45.47","MONTREAL/PIERRE ELLIOTT TRUDEAU INTL A","7025250","2012-03-18 15:00","2012","03","18","15:00","22.2","","10.4","","47","","22","","15","","48.3","","101.39","","","","","","Mainly Clear"
"-73.75","45.47","MONTREAL/PIERRE ELLIOTT TRUDEAU INTL A","7025250","2012-03-18 16:00","2012","03","18","16:00","22.7","","10.7","","47","","23","","11","","48.3","","101.35","","","","","","Mainly Clear"
"-73.75","45.47","MONTREAL/PIERRE ELLIOTT TRUDEAU INTL A","7025250","2012-03-18 17:00","2012","03","18","17:00","21.8","","11.0","","50","","23","","6","","48.3","","101.32","","","","","","Mostly Cloudy"
"-73.75","45.47","MONTREAL/PIERRE ELLIOTT TRUDEAU INTL A","7025250","2012-03-18 18:00","2012","03","18","18:00","18.4","","10.1","","58","","34","","9","","48.3","","101.32","","","","","","Mostly Cloudy"
"-73.75","45.47","MONTREAL/PIERRE ELLIOTT TRUDEAU INTL A","7025250","2012-03-18 19:00","2012","03","18","19:00","17.1","","9.8","","62","","","","0","","25.0","","101.30","","","","","","Mainly Clear"
"-73.75","45.47","MONTREAL/PIERRE ELLIOTT TRUDEAU INTL A","7025250","2012-03-18 20:00","2012","03","18","20:00","12.8","","8.6","","76","","23","","7","","25.0","","101.34","","","","","","Clear"
"-73.75","45.47","MONTREAL/PIERRE ELLIOTT TRUDEAU INTL A","7025250","2012-03-18 21:00","2012","03","18","21:00","13.4","","9.2","","76","","20","","4","","25.0","","101.37","","","","","","Mainly Clear"
"-73.75","45.47","MONTREAL/PIERRE ELLIOTT TRUDEAU INTL A","7025250","2012-03-18 22:00","2012","03","18","22:00","12.6","","8.9","","78","","20","","7","","25.0","","101.39","","","","","","Mainly Clear"
"-73.75","45.47","MONTREAL/PIERRE ELLIOTT TRUDEAU INTL A","7025250","2012-03-18 23:00","2012","03","18","23:00","10.6","","7.9","","83","","23","","6","","25.0","","101.37","","","","","","Mainly Clear"
"-73.75","45.47","MONTREAL/PIERRE ELLIOTT TRUDEAU INTL A","7025250","2012-03-19 00:00","2012","03","19","00:00","9.8","","7.6","","86","","23","","6","","25.0","","101.37","","","","","","Mainly Clear"
"-73.75","45.47","MONTREAL/PIERRE ELLIOTT TRUDEAU INTL A","7025250","2012-03-19 01:00","2012","03","19","01:00","10.8","","8.5","","86","","21","","6","","25.0","","101.39","","","","","","Clear"
"-73.75","45.47","MONTREAL/PIERRE ELLIOTT TRUDEAU INTL A","7025250","2012-03-19 02:00","2012","03","19","02:00","10.6","","8.6","","87","","22","","4","","25.0","","101.42","","","","","","Clear"
"-73.75","45.47","MONTREAL/PIERRE ELLIOTT TRUDEAU INTL A","7025250","2012-03-19 03:00","2012","03","19","03:00","10.2","","8.3","","88","","21","","11","","25.0","","101.42","","","","","","Clear"
"-73.75","45.47","MONTREAL/PIERRE ELLIOTT TRUDEAU INTL A","7025250","2012-03-19 04:00","2012","03","19","04:00","11.2","","9.0","","86","","23","","6","","25.0","","101.49","","","","","","Clear"
"-73.75","45.47","MONTREAL/PIERRE ELLIOTT TRUDEAU INTL A","7025250","2012-03-19 05:00","2012","03","19","05:00","9.7","","8.1","","90","","21","","7","","25.0","","101.50","","","","","","Clear"
"-73.75","45.47","MONTREAL/PIERRE ELLIOTT TRUDEAU INTL A","7025250","2012-03-19 06:00","2012","03","19","06:00","11.3","","9.4","","88","","5","","4","","24.1","","101.56","","","","","","Mainly Clear"
"-73.75","45.47","MONTREAL/PIERRE ELLIOTT TRUDEAU INTL A","7025250","2012-03-19 07:00","2012","03","19","07:00","9.9","","8.5","","91","","","","0","","12.9","","101.59","","","","","","Mostly Cloudy"
"-73.75","45.47","MONTREAL/PIERRE ELLIOTT TRUDEAU INTL A","7025250","2012-03-19 08:00","2012","03","19","08:00","11.9","","9.9","","88","","1","","7","","12.9","","101.67","","","","","","Mostly Cloudy"
"-73.75","45.47","MONTREAL/PIERRE ELLIOTT TRUDEAU INTL A","7025250","2012-03-19 09:00","2012","03","19","09:00","13.9","","10.5","","80","","32","","6","","12.9","","101.71","","","","","","Mainly Clear"
"-73.75","45.47","MONTREAL/PIERRE ELLIOTT TRUDEAU INTL A","7025250","2012-03-19 10:00","2012","03","19","10:00","15.6","","11.0","","74","","24","","6","","16.1","","101.75","","","","","","Mainly Clear"
"-73.75","45.47","MONTREAL/PIERRE ELLIOTT TRUDEAU INTL A","7025250","2012-03-19 11:00","2012","03","19","11:00","17.8","","11.6","","67","","30","","4","","16.1","","101.75","","","","","","Mainly Clear"
"-73.75","45.47","MONTREAL/PIERRE ELLIOTT TRUDEAU INTL A","7025250","2012-03-19 12:00","2012","03","19","12:00","19.8","","12.0","","61","","31","","4","","19.3","","101.75","","","","","","Mainly Clear"
"-73.75","45.47","MONTREAL/PIERRE ELLIOTT TRUDEAU INTL A","7025250","2012-03-19 13:00","2012","03","19","13:00","18.5","","11.0","","62","","4","","19","","19.3","","101.72","","","","","","Mainly Clear"
"-73.75","45.47","MONTREAL/PIERRE ELLIOTT TRUDEAU INTL A","7025250","2012-03-19 14:00","2012","03","19","14:00","17.0","","9.9","","63","","3","","15","","24.1","","101.72","","","","","","Mainly Clear"
"-73.75","45.47","MONTREAL/PIERRE ELLIOTT TRUDEAU INTL A","7025250","2012-03-19 15:00","2012","03","19","15:00","16.3","","10.0","","66","","3","","17","","24.1","","101.71","","","","","","Mainly Clear"
"-73.75","45.47","MONTREAL/PIERRE ELLIOTT TRUDEAU INTL A","7025250","2012-03-19 16:00","2012","03","19","16:00","16.6","","9.7","","64","","3","","11","","24.1","","101.66","","","","","","Mainly Clear"
"-73.75","45.47","MONTREAL/PIERRE ELLIOTT TRUDEAU INTL A","7025250","2012-03-19 17:00","2012","03","19","17:00","15.9","","9.1","","64","","2","","13","","24.1","","101.66","","","","","","Mainly Clear"
"-73.75","45.47","MONTREAL/PIERRE ELLIOTT TRUDEAU INTL A","7025250","2012-03-19 18:00","2012","03","19","18:00","13.9","","7.9","","67","","4","","19","","24.1","","101.67","","","","","","Mainly Clear"
"-73.75","45.47","MONTREAL/PIERRE ELLIOTT TRUDEAU INTL A","7025250","2012-03-19 19:00","2012","03","19","19:00","12.5","","6.7","","68","","3","","15","","25.0","","101.71","","","","","","Mainly Clear"
"-73.75","45.47","MONTREAL/PIERRE ELLIOTT TRUDEAU INTL A","7025250","2012-03-19 20:00","2012","03","19","20:00","10.6","","5.4","","70","","3","","13","","25.0","","101.80","","","","","","Mainly Clear"
"-73.75","45.47","MONTREAL/PIERRE ELLIOTT TRUDEAU INTL A","7025250","2012-03-19 21:00","2012","03","19","21:00","9.5","","4.1","","69","","2","","15","","25.0","","101.80","","","","","","Clear"
"-73.75","45.47","MONTREAL/PIERRE ELLIOTT TRUDEAU INTL A","7025250","2012-03-19 22:00","2012","03","19","22:00","8.8","","2.7","","66","","3","","17","","25.0","","101.83","","","","","","Clear"
"-73.75","45.47","MONTREAL/PIERRE ELLIOTT TRUDEAU INTL A","7025250","2012-03-19 23:00","2012","03","19","23:00","7.2","","1.8","","69","","1","","9","","25.0","","101.86","","","","","","Clear"
"-73.75","45.47","MONTREAL/PIERRE ELLIOTT TRUDEAU INTL A","7025250","2012-03-20 00:00","2012","03","20","00:00","7.1","","1.0","","65","","36","","11","","25.0","","101.85","","","","","","Clear"
"-73.75","45.47","MONTREAL/PIERRE ELLIOTT TRUDEAU INTL A","7025250","2012-03-20 01:00","2012","03","20","01:00","6.1","","0.7","","68","","2","","11","","25.0","","101.85","","","","","","Clear"
"-73.75","45.47","MONTREAL/PIERRE ELLIOTT TRUDEAU INTL A","7025250","2012-03-20 02:00","2012","03","20","02:00","5.7","","0.4","","69","","1","","11","","25.0","","101.85","","","","","","Clear"
"-73.75","45.47","MONTREAL/PIERRE ELLIOTT TRUDEAU INTL A","7025250","2012-03-20 03:00","2012","03","20","03:00","5.2","","0.2","","70","","35","","7","","25.0","","101.86","","","","","","Clear"
"-73.75","45.47","MONTREAL/PIERRE ELLIOTT TRUDEAU INTL A","7025250","2012-03-20 04:00","2012","03","20","04:00","5.2","","-0.2","","68","","36","","4","","25.0","","101.88","","","","","","Clear"
"-73.75","45.47","MONTREAL/PIERRE ELLIOTT TRUDEAU INTL A","7025250","2012-03-20 05:00","2012","03","20","05:00","5.0","","-0.3","","69","","1","","7","","25.0","","101.92","","","","","","Clear"
"-73.75","45.47","MONTREAL/PIERRE ELLIOTT TRUDEAU INTL A","7025250","2012-03-20 06:00","2012","03","20","06:00","3.2","","-0.6","","76","","33","","4","","24.1","","101.97","","","","","","Clear"
"-73.75","45.47","MONTREAL/PIERRE ELLIOTT TRUDEAU INTL A","7025250","2012-03-20 07:00","2012","03","20","07:00","5.5","","-0.1","","67","","3","","4","","24.1","","102.00","","","","","","Clear"
"-73.75","45.47","MONTREAL/PIERRE ELLIOTT TRUDEAU INTL A","7025250","2012-03-20 08:00","2012","03","20","08:00","8.0","","0.6","","60","","34","","6","","24.1","","102.08","","","","","","Clear"
"-73.75","45.47","MONTREAL/PIERRE ELLIOTT TRUDEAU INTL A","7025250","2012-03-20 09:00","2012","03","20","09:00","10.6","","1.3","","53","","","","0","","19.3","","102.09","","","","","","Mainly Clear"
"-73.75","45.47","MONTREAL/PIERRE ELLIOTT TRUDEAU INTL A","7025250","2012-03-20 10:00","2012","03","20","10:00","12.6","","2.6","","50","","23","","4","","24.1","","102.07","","","","","","Mainly Clear"
"-73.75","45.47","MONTREAL/PIERRE ELLIOTT TRUDEAU INTL A","7025250","2012-03-20 11:00","2012","03","20","11:00","14.9","","4.0","","48","","22","","6","","24.1","","102.02","","","","","","Clear"
"-73.75","45.47","MONTREAL/PIERRE ELLIOTT TRUDEAU INTL A","7025250","2012-03-20 12:00","2012","03","20","12:00","16.5","","6.7","","52","","21","","9","","24.1","","101.98","","","","","","Clear"
"-73.75","45.47","MONTREAL/PIERRE ELLIOTT TRUDEAU INTL A","7025250","2012-03-20 13:00","2012","03","20","13:00","20.0","","10.8","","55","","20","","13","","24.1","","101.93","","","","","","Clear"
"-73.75","45.47","MONTREAL/PIERRE ELLIOTT TRUDEAU INTL A","7025250","2012-03-20 14:00","2012","03","20","14:00","21.5","","11.8","","54","","20","","11","","24.1","","101.83","","","","","","Clear"
"-73.75","45.47","MONTREAL/PIERRE ELLIOTT TRUDEAU INTL A","7025250","2012-03-20 15:00","2012","03","20","15:00","22.5","","12.3","","52","","21","","9","","24.1","","101.78","","25","","","","Clear"
"-73.75","45.47","MONTREAL/PIERRE ELLIOTT TRUDEAU INTL A","7025250","2012-03-20 16:00","2012","03","20","16:00","23.3","","12.1","","49","","22","","7","","24.1","","101.73","","26","","","","Clear"
"-73.75","45.47","MONTREAL/PIERRE ELLIOTT TRUDEAU INTL A","7025250","2012-03-20 17:00","2012","03","20","17:00","22.0","","12.1","","53","","20","","7","","24.1","","101.72","","","","","","Clear"
"-73.75","45.47","MONTREAL/PIERRE ELLIOTT TRUDEAU INTL A","7025250","2012-03-20 18:00","2012","03","20","18:00","19.7","","11.7","","60","","20","","4","","24.1","","101.74","","","","","","Clear"
"-73.75","45.47","MONTREAL/PIERRE ELLIOTT TRUDEAU INTL A","7025250","2012-03-20 19:00","2012","03","20","19:00","17.5","","10.9","","65","","22","","6","","25.0","","101.79","","","","","","Clear"
"-73.75","45.47","MONTREAL/PIERRE ELLIOTT TRUDEAU INTL A","7025250","2012-03-20 20:00","2012","03","20","20:00","18.1","","11.6","","66","","18","","4","","25.0","","101.85","","","","","","Clear"
"-73.75","45.47","MONTREAL/PIERRE ELLIOTT TRUDEAU INTL A","7025250","2012-03-20 21:00","2012","03","20","21:00","16.0","","10.9","","72","","24","","6","","25.0","","101.89","","","","","","Clear"
"-73.75","45.47","MONTREAL/PIERRE ELLIOTT TRUDEAU INTL A","7025250","2012-03-20 22:00","2012","03","20","22:00","14.2","","10.3","","77","","19","","4","","25.0","","101.90","","","","","","Clear"
"-73.75","45.47","MONTREAL/PIERRE ELLIOTT TRUDEAU INTL A","7025250","2012-03-20 23:00","2012","03","20","23:00","14.3","","10.7","","79","","22","","6","","25.0","","101.91","","","","","","Clear"
"-73.75","45.47","MONTREAL/PIERRE ELLIOTT TRUDEAU INTL A","7025250","2012-03-21 00:00","2012","03","21","00:00","14.0","","11.0","","82","","22","","9","","25.0","","101.90","","","","","","Clear"
"-73.75","45.47","MONTREAL/PIERRE ELLIOTT TRUDEAU INTL A","7025250","2012-03-21 01:00","2012","03","21","01:00","12.4","","10.5","","88","","19","","4","","25.0","","101.92","","","","","","Clear"
"-73.75","45.47","MONTREAL/PIERRE ELLIOTT TRUDEAU INTL A","7025250","2012-03-21 02:00","2012","03","21","02:00","11.8","","10.3","","91","","25","","6","","25.0","","101.93","","","","","","Clear"
"-73.75","45.47","MONTREAL/PIERRE ELLIOTT TRUDEAU INTL A","7025250","2012-03-21 03:00","2012","03","21","03:00","11.4","","9.8","","90","","18","","4","","25.0","","101.93","","","","","","Clear"
"-73.75","45.47","MONTREAL/PIERRE ELLIOTT TRUDEAU INTL A","7025250","2012-03-21 04:00","2012","03","21","04:00","10.6","","9.1","","90","","","","0","","25.0","","101.95","","","","","","Clear"
"-73.75","45.47","MONTREAL/PIERRE ELLIOTT TRUDEAU INTL A","7025250","2012-03-21 05:00","2012","03","21","05:00","10.0","","8.8","","92","","","","0","","25.0","","102.02","","","","","","Clear"
"-73.75","45.47","MONTREAL/PIERRE ELLIOTT TRUDEAU INTL A","7025250","2012-03-21 06:00","2012","03","21","06:00","9.5","","8.6","","94","","18","","4","","9.7","","102.07","","","","","","Fog"
"-73.75","45.47","MONTREAL/PIERRE ELLIOTT TRUDEAU INTL A","7025250","2012-03-21 07:00","2012","03","21","07:00","11.3","","9.9","","91","","22","","4","","9.7","","102.10","","","","","","Fog"
"-73.75","45.47","MONTREAL/PIERRE ELLIOTT TRUDEAU INTL A","7025250","2012-03-21 08:00","2012","03","21","08:00","13.8","","11.5","","86","","21","","9","","12.9","","102.15","","","","","","Clear"
"-73.75","45.47","MONTREAL/PIERRE ELLIOTT TRUDEAU INTL A","7025250","2012-03-21 09:00","2012","03","21","09:00","15.9","","11.8","","77","","21","","7","","19.3","","102.17","","","","","","Clear"
"-73.75","45.47","MONTREAL/PIERRE ELLIOTT TRUDEAU INTL A","7025250","2012-03-21 10:00","2012","03","21","10:00","18.2","","12.5","","69","","19","","13","","24.1","","102.09","","","","","","Clear"
"-73.75","45.47","MONTREAL/PIERRE ELLIOTT TRUDEAU INTL A","7025250","2012-03-21 11:00","2012","03","21","11:00","20.2","","12.3","","60","","22","","15","","24.1","","102.01","","","","","","Clear"
"-73.75","45.47","MONTREAL/PIERRE ELLIOTT TRUDEAU INTL A","7025250","2012-03-21 12:00","2012","03","21","12:00","22.3","","12.6","","54","","22","","15","","24.1","","101.94","","25","","","","Clear"
"-73.75","45.47","MONTREAL/PIERRE ELLIOTT TRUDEAU INTL A","7025250","2012-03-21 13:00","2012","03","21","13:00","23.8","","12.1","","48","","23","","17","","24.1","","101.85","","26","","","","Clear"
"-73.75","45.47","MONTREAL/PIERRE ELLIOTT TRUDEAU INTL A","7025250","2012-03-21 14:00","2012","03","21","14:00","24.7","","12.1","","45","","23","","13","","24.1","","101.77","","27","","","","Clear"
"-73.75","45.47","MONTREAL/PIERRE ELLIOTT TRUDEAU INTL A","7025250","2012-03-21 15:00","2012","03","21","15:00","25.4","","12.0","","43","","21","","17","","48.3","","101.72","","28","","","","Clear"
"-73.75","45.47","MONTREAL/PIERRE ELLIOTT TRUDEAU INTL A","7025250","2012-03-21 16:00","2012","03","21","16:00","25.5","","11.0","","40","","22","","17","","48.3","","101.69","","27","","","","Clear"
"-73.75","45.47","MONTREAL/PIERRE ELLIOTT TRUDEAU INTL A","7025250","2012-03-21 17:00","2012","03","21","17:00","25.2","","10.7","","40","","23","","13","","48.3","","101.68","","27","","","","Clear"
"-73.75","45.47","MONTREAL/PIERRE ELLIOTT TRUDEAU INTL A","7025250","2012-03-21 18:00","2012","03","21","18:00","20.7","","9.7","","49","","21","","9","","48.3","","101.67","","","","","","Clear"
"-73.75","45.47","MONTREAL/PIERRE ELLIOTT TRUDEAU INTL A","7025250","2012-03-21 19:00","2012","03","21","19:00","17.2","","9.1","","59","","18","","6","","25.0","","101.67","","","","","","Clear"
"-73.75","45.47","MONTREAL/PIERRE ELLIOTT TRUDEAU INTL A","7025250","2012-03-21 20:00","2012","03","21","20:00","18.4","","8.9","","54","","21","","7","","25.0","","101.70","","","","","","Clear"
"-73.75","45.47","MONTREAL/PIERRE ELLIOTT TRUDEAU INTL A","7025250","2012-03-21 21:00","2012","03","21","21:00","16.4","","9.7","","65","","21","","13","","25.0","","101.68","","","","","","Clear"
"-73.75","45.47","MONTREAL/PIERRE ELLIOTT TRUDEAU INTL A","7025250","2012-03-21 22:00","2012","03","21","22:00","18.0","","10.5","","62","","23","","7","","25.0","","101.66","","","","","","Clear"
"-73.75","45.47","MONTREAL/PIERRE ELLIOTT TRUDEAU INTL A","7025250","2012-03-21 23:00","2012","03","21","23:00","16.5","","9.5","","63","","23","","7","","25.0","","101.66","","","","","","Clear"
"-73.75","45.47","MONTREAL/PIERRE ELLIOTT TRUDEAU INTL A","7025250","2012-03-22 00:00","2012","03","22","00:00","17.0","","9.1","","60","","22","","13","","25.0","","101.63","","","","","","Clear"
"-73.75","45.47","MONTREAL/PIERRE ELLIOTT TRUDEAU INTL A","7025250","2012-03-22 01:00","2012","03","22","01:00","15.5","","8.7","","64","","22","","11","","25.0","","101.62","","","","","","Clear"
"-73.75","45.47","MONTREAL/PIERRE ELLIOTT TRUDEAU INTL A","7025250","2012-03-22 02:00","2012","03","22","02:00","15.0","","8.7","","66","","22","","7","","25.0","","101.59","","","","","","Clear"
"-73.75","45.47","MONTREAL/PIERRE ELLIOTT TRUDEAU INTL A","7025250","2012-03-22 03:00","2012","03","22","03:00","11.0","","7.4","","78","","21","","9","","25.0","","101.56","","","","","","Clear"
"-73.75","45.47","MONTREAL/PIERRE ELLIOTT TRUDEAU INTL A","7025250","2012-03-22 04:00","2012","03","22","04:00","13.2","","8.4","","73","","25","","6","","25.0","","101.54","","","","","","Clear"
"-73.75","45.47","MONTREAL/PIERRE ELLIOTT TRUDEAU INTL A","7025250","2012-03-22 05:00","2012","03","22","05:00","12.8","","8.5","","75","","24","","13","","25.0","","101.59","","","","","","Clear"
"-73.75","45.47","MONTREAL/PIERRE ELLIOTT TRUDEAU INTL A","7025250","2012-03-22 06:00","2012","03","22","06:00","13.7","","9.0","","73","","21","","15","","48.3","","101.57","","","","","","Mostly Cloudy"
"-73.75","45.47","MONTREAL/PIERRE ELLIOTT TRUDEAU INTL A","7025250","2012-03-22 07:00","2012","03","22","07:00","14.2","","9.5","","73","","22","","22","","24.1","","101.55","","","","","","Mainly Clear"
"-73.75","45.47","MONTREAL/PIERRE ELLIOTT TRUDEAU INTL A","7025250","2012-03-22 08:00","2012","03","22","08:00","15.4","","9.9","","70","","21","","15","","24.1","","101.55","","","","","","Mainly Clear"
"-73.75","45.47","MONTREAL/PIERRE ELLIOTT TRUDEAU INTL A","7025250","2012-03-22 09:00","2012","03","22","09:00","17.3","","10.4","","64","","24","","22","","24.1","","101.53","","","","","","Mainly Clear"
"-73.75","45.47","MONTREAL/PIERRE ELLIOTT TRUDEAU INTL A","7025250","2012-03-22 10:00","2012","03","22","10:00","19.6","","11.4","","59","","26","","17","","24.1","","101.57","","","","","","Mainly Clear"
"-73.75","45.47","MONTREAL/PIERRE ELLIOTT TRUDEAU INTL A","7025250","2012-03-22 11:00","2012","03","22","11:00","20.4","","11.9","","58","","23","","15","","24.1","","101.52","","","","","","Mainly Clear"
"-73.75","45.47","MONTREAL/PIERRE ELLIOTT TRUDEAU INTL A","7025250","2012-03-22 12:00","2012","03","22","12:00","23.0","","12.0","","50","","27","","20","","24.1","","101.50","","25","","","","Mostly Cloudy"
"-73.75","45.47","MONTREAL/PIERRE ELLIOTT TRUDEAU INTL A","7025250","2012-03-22 13:00","2012","03","22","13:00","23.3","","12.1","","49","","27","","19","","24.1","","101.43","","26","","","","Mostly Cloudy"
"-73.75","45.47","MONTREAL/PIERRE ELLIOTT TRUDEAU INTL A","7025250","2012-03-22 14:00","2012","03","22","14:00","22.8","","12.6","","53","","31","","17","","24.1","","101.40","","25","","","","Cloudy"
"-73.75","45.47","MONTREAL/PIERRE ELLIOTT TRUDEAU INTL A","7025250","2012-03-22 15:00","2012","03","22","15:00","21.4","","12.8","","58","","34","","6","","24.1","","101.38","","","","","","Cloudy"
"-73.75","45.47","MONTREAL/PIERRE ELLIOTT TRUDEAU INTL A","7025250","2012-03-22 16:00","2012","03","22","16:00","22.2","","12.3","","53","","27","","13","","24.1","","101.33","","25","","","","Mostly Cloudy"
"-73.75","45.47","MONTREAL/PIERRE ELLIOTT TRUDEAU INTL A","7025250","2012-03-22 17:00","2012","03","22","17:00","20.0","","12.2","","61","","31","","11","","24.1","","101.39","","","","","","Mostly Cloudy"
"-73.75","45.47","MONTREAL/PIERRE ELLIOTT TRUDEAU INTL A","7025250","2012-03-22 18:00","2012","03","22","18:00","18.2","","11.5","","65","","33","","19","","24.1","","101.48","","","","","","Rain Showers"
"-73.75","45.47","MONTREAL/PIERRE ELLIOTT TRUDEAU INTL A","7025250","2012-03-22 19:00","2012","03","22","19:00","16.7","","9.4","","62","","32","","13","","25.0","","101.52","","","","","","Rain Showers"
"-73.75","45.47","MONTREAL/PIERRE ELLIOTT TRUDEAU INTL A","7025250","2012-03-22 20:00","2012","03","22","20:00","15.1","","8.5","","65","","34","","11","","25.0","","101.58","","","","","","Mainly Clear"
"-73.75","45.47","MONTREAL/PIERRE ELLIOTT TRUDEAU INTL A","7025250","2012-03-22 21:00","2012","03","22","21:00","12.1","","7.4","","73","","31","","7","","25.0","","101.59","","","","","","Mainly Clear"
"-73.75","45.47","MONTREAL/PIERRE ELLIOTT TRUDEAU INTL A","7025250","2012-03-22 22:00","2012","03","22","22:00","11.0","","6.8","","75","","29","","7","","25.0","","101.61","","","","","","Mainly Clear"
"-73.75","45.47","MONTREAL/PIERRE ELLIOTT TRUDEAU INTL A","7025250","2012-03-22 23:00","2012","03","22","23:00","11.3","","7.2","","76","","29","","6","","25.0","","101.62","","","","","","Clear"
"-73.75","45.47","MONTREAL/PIERRE ELLIOTT TRUDEAU INTL A","7025250","2012-03-23 00:00","2012","03","23","00:00","10.4","","7.1","","80","","29","","7","","25.0","","101.67","","","","","","Mainly Clear"
"-73.75","45.47","MONTREAL/PIERRE ELLIOTT TRUDEAU INTL A","7025250","2012-03-23 01:00","2012","03","23","01:00","10.3","","7.5","","83","","","","0","","25.0","","101.70","","","","","","Mainly Clear"
"-73.75","45.47","MONTREAL/PIERRE ELLIOTT TRUDEAU INTL A","7025250","2012-03-23 02:00","2012","03","23","02:00","8.9","","6.5","","85","","31","","9","","25.0","","101.71","","","","","","Mainly Clear"
"-73.75","45.47","MONTREAL/PIERRE ELLIOTT TRUDEAU INTL A","7025250","2012-03-23 03:00","2012","03","23","03:00","8.8","","6.4","","85","","32","","9","","25.0","","101.72","","","","","","Mainly Clear"
"-73.75","45.47","MONTREAL/PIERRE ELLIOTT TRUDEAU INTL A","7025250","2012-03-23 04:00","2012","03","23","04:00","9.2","","6.3","","82","","4","","7","","25.0","","101.76","","","","","","Clear"
"-73.75","45.47","MONTREAL/PIERRE ELLIOTT TRUDEAU INTL A","7025250","2012-03-23 05:00","2012","03","23","05:00","8.0","","5.2","","82","","2","","9","","25.0","","101.85","","","","","","Clear"
"-73.75","45.47","MONTREAL/PIERRE ELLIOTT TRUDEAU INTL A","7025250","2012-03-23 06:00","2012","03","23","06:00","6.6","","2.9","","77","","36","","7","","25.0","","101.90","","","","","","Clear"
"-73.75","45.47","MONTREAL/PIERRE ELLIOTT TRUDEAU INTL A","7025250","2012-03-23 07:00","2012","03","23","07:00","8.4","","3.0","","69","","","","0","","48.3","","101.93","","","","","","Clear"
"-73.75","45.47","MONTREAL/PIERRE ELLIOTT TRUDEAU INTL A","7025250","2012-03-23 08:00","2012","03","23","08:00","11.3","","1.8","","52","","","","0","","48.3","","101.93","","","","","","Clear"
"-73.75","45.47","MONTREAL/PIERRE ELLIOTT TRUDEAU INTL A","7025250","2012-03-23 09:00","2012","03","23","09:00","12.8","","2.3","","49","","21","","4","","48.3","","101.94","","","","","","Clear"
"-73.75","45.47","MONTREAL/PIERRE ELLIOTT TRUDEAU INTL A","7025250","2012-03-23 10:00","2012","03","23","10:00","14.5","","0.1","","37","","36","","17","","48.3","","101.93","","","","","","Clear"
"-73.75","45.47","MONTREAL/PIERRE ELLIOTT TRUDEAU INTL A","7025250","2012-03-23 11:00","2012","03","23","11:00","14.9","","-3.0","","29","","32","","15","","48.3","","101.87","","","","","","Clear"
"-73.75","45.47","MONTREAL/PIERRE ELLIOTT TRUDEAU INTL A","7025250","2012-03-23 12:00","2012","03","23","12:00","16.2","","-2.5","","28","","32","","11","","48.3","","101.81","","","","","","Mainly Clear"
"-73.75","45.47","MONTREAL/PIERRE ELLIOTT TRUDEAU INTL A","7025250","2012-03-23 13:00","2012","03","23","13:00","16.8","","-2.3","","27","","27","","7","","48.3","","101.71","","","","","","Mostly Cloudy"
"-73.75","45.47","MONTREAL/PIERRE ELLIOTT TRUDEAU INTL A","7025250","2012-03-23 14:00","2012","03","23","14:00","16.6","","-6.8","","19","","32","","15","","48.3","","101.66","","","","","","Mostly Cloudy"
"-73.75","45.47","MONTREAL/PIERRE ELLIOTT TRUDEAU INTL A","7025250","2012-03-23 15:00","2012","03","23","15:00","16.4","","-6.8","","20","","36","","15","","48.3","","101.63","","","","","","Mostly Cloudy"
"-73.75","45.47","MONTREAL/PIERRE ELLIOTT TRUDEAU INTL A","7025250","2012-03-23 16:00","2012","03","23","16:00","15.5","","-9.0","","18","","35","","22","","48.3","","101.60","","","","","","Cloudy"
"-73.75","45.47","MONTREAL/PIERRE ELLIOTT TRUDEAU INTL A","7025250","2012-03-23 17:00","2012","03","23","17:00","14.7","","-5.1","","25","","34","","13","","48.3","","101.62","","","","","","Cloudy"
"-73.75","45.47","MONTREAL/PIERRE ELLIOTT TRUDEAU INTL A","7025250","2012-03-23 18:00","2012","03","23","18:00","13.4","","-5.8","","26","","31","","13","","48.3","","101.64","","","","","","Cloudy"
"-73.75","45.47","MONTREAL/PIERRE ELLIOTT TRUDEAU INTL A","7025250","2012-03-23 19:00","2012","03","23","19:00","11.8","","-5.5","","29","","33","","11","","25.0","","101.68","","","","","","Mostly Cloudy"
"-73.75","45.47","MONTREAL/PIERRE ELLIOTT TRUDEAU INTL A","7025250","2012-03-23 20:00","2012","03","23","20:00","10.9","","-5.9","","30","","36","","6","","25.0","","101.72","","","","","","Cloudy"
"-73.75","45.47","MONTREAL/PIERRE ELLIOTT TRUDEAU INTL A","7025250","2012-03-23 21:00","2012","03","23","21:00","10.8","","-8.0","","26","","1","","15","","25.0","","101.70","","","","","","Mostly Cloudy"
"-73.75","45.47","MONTREAL/PIERRE ELLIOTT TRUDEAU INTL A","7025250","2012-03-23 22:00","2012","03","23","22:00","10.6","","-8.9","","24","","2","","19","","25.0","","101.73","","","","","","Cloudy"
"-73.75","45.47","MONTREAL/PIERRE ELLIOTT TRUDEAU INTL A","7025250","2012-03-23 23:00","2012","03","23","23:00","9.9","","-8.7","","26","","4","","19","","25.0","","101.78","","","","","","Mostly Cloudy"
"-73.75","45.47","MONTREAL/PIERRE ELLIOTT TRUDEAU INTL A","7025250","2012-03-24 00:00","2012","03","24","00:00","8.4","","-9.1","","28","","4","","22","","25.0","","101.80","","","","","","Mostly Cloudy"
"-73.75","45.47","MONTREAL/PIERRE ELLIOTT TRUDEAU INTL A","7025250","2012-03-24 01:00","2012","03","24","01:00","7.3","","-9.4","","29","","4","","20","","25.0","","101.85","","","","","","Mainly Clear"
"-73.75","45.47","MONTREAL/PIERRE ELLIOTT TRUDEAU INTL A","7025250","2012-03-24 02:00","2012","03","24","02:00","6.2","","-10.6","","29","","5","","19","","25.0","","101.86","","","","","","Mostly Cloudy"
"-73.75","45.47","MONTREAL/PIERRE ELLIOTT TRUDEAU INTL A","7025250","2012-03-24 03:00","2012","03","24","03:00","5.3","","-9.4","","34","","6","","22","","25.0","","101.86","","","","","","Mostly Cloudy"
"-73.75","45.47","MONTREAL/PIERRE ELLIOTT TRUDEAU INTL A","7025250","2012-03-24 04:00","2012","03","24","04:00","4.4","","-8.9","","37","","7","","13","","25.0","","101.88","","","","","","Cloudy"
"-73.75","45.47","MONTREAL/PIERRE ELLIOTT TRUDEAU INTL A","7025250","2012-03-24 05:00","2012","03","24","05:00","3.6","","-8.5","","41","","8","","19","","25.0","","101.89","","","","","","Cloudy"
"-73.75","45.47","MONTREAL/PIERRE ELLIOTT TRUDEAU INTL A","7025250","2012-03-24 06:00","2012","03","24","06:00","3.2","","-8.8","","41","","6","","19","","24.1","","101.93","","","","","","Cloudy"
"-73.75","45.47","MONTREAL/PIERRE ELLIOTT TRUDEAU INTL A","7025250","2012-03-24 07:00","2012","03","24","07:00","3.1","","-9.3","","40","","8","","15","","24.1","","101.97","","","","","","Cloudy"
"-73.75","45.47","MONTREAL/PIERRE ELLIOTT TRUDEAU INTL A","7025250","2012-03-24 08:00","2012","03","24","08:00","2.7","","-9.4","","40","","8","","19","","24.1","","101.98","","","","","","Cloudy"
"-73.75","45.47","MONTREAL/PIERRE ELLIOTT TRUDEAU INTL A","7025250","2012-03-24 09:00","2012","03","24","09:00","3.0","","-11.2","","34","","7","","22","","48.3","","101.94","","","","","","Cloudy"
"-73.75","45.47","MONTREAL/PIERRE ELLIOTT TRUDEAU INTL A","7025250","2012-03-24 10:00","2012","03","24","10:00","3.7","","-9.5","","37","","4","","22","","48.3","","101.89","","","","","","Cloudy"
"-73.75","45.47","MONTREAL/PIERRE ELLIOTT TRUDEAU INTL A","7025250","2012-03-24 11:00","2012","03","24","11:00","3.7","","-11.1","","33","","5","","22","","48.3","","101.86","","","","","","Cloudy"
"-73.75","45.47","MONTREAL/PIERRE ELLIOTT TRUDEAU INTL A","7025250","2012-03-24 12:00","2012","03","24","12:00","4.8","","-10.3","","33","","7","","19","","48.3","","101.80","","","","","","Cloudy"
"-73.75","45.47","MONTREAL/PIERRE ELLIOTT TRUDEAU INTL A","7025250","2012-03-24 13:00","2012","03","24","13:00","4.7","","-10.9","","31","","4","","19","","48.3","","101.74","","","","","","Cloudy"
"-73.75","45.47","MONTREAL/PIERRE ELLIOTT TRUDEAU INTL A","7025250","2012-03-24 14:00","2012","03","24","14:00","6.1","","-8.7","","34","","7","","9","","48.3","","101.68","","","","","","Cloudy"
"-73.75","45.47","MONTREAL/PIERRE ELLIOTT TRUDEAU INTL A","7025250","2012-03-24 15:00","2012","03","24","15:00","5.8","","-9.8","","32","","7","","4","","48.3","","101.61","","","","","","Cloudy"
"-73.75","45.47","MONTREAL/PIERRE ELLIOTT TRUDEAU INTL A","7025250","2012-03-24 16:00","2012","03","24","16:00","6.1","","-9.5","","32","","3","","7","","48.3","","101.53","","","","","","Cloudy"
"-73.75","45.47","MONTREAL/PIERRE ELLIOTT TRUDEAU INTL A","7025250","2012-03-24 17:00","2012","03","24","17:00","6.1","","-10.3","","30","","5","","13","","48.3","","101.47","","","","","","Cloudy"
"-73.75","45.47","MONTREAL/PIERRE ELLIOTT TRUDEAU INTL A","7025250","2012-03-24 18:00","2012","03","24","18:00","6.1","","-9.9","","31","","5","","13","","48.3","","101.46","","","","","","Cloudy"
"-73.75","45.47","MONTREAL/PIERRE ELLIOTT TRUDEAU INTL A","7025250","2012-03-24 19:00","2012","03","24","19:00","6.2","","-8.4","","34","","5","","13","","25.0","","101.38","","","","","","Cloudy"
"-73.75","45.47","MONTREAL/PIERRE ELLIOTT TRUDEAU INTL A","7025250","2012-03-24 20:00","2012","03","24","20:00","6.3","","-7.4","","37","","8","","9","","25.0","","101.35","","","","","","Cloudy"
"-73.75","45.47","MONTREAL/PIERRE ELLIOTT TRUDEAU INTL A","7025250","2012-03-24 21:00","2012","03","24","21:00","6.6","","-8.1","","34","","9","","9","","25.0","","101.28","","","","","","Cloudy"
"-73.75","45.47","MONTREAL/PIERRE ELLIOTT TRUDEAU INTL A","7025250","2012-03-24 22:00","2012","03","24","22:00","6.6","","-7.8","","35","","4","","11","","25.0","","101.22","","","","","","Cloudy"
"-73.75","45.47","MONTREAL/PIERRE ELLIOTT TRUDEAU INTL A","7025250","2012-03-24 23:00","2012","03","24","23:00","6.5","","-7.2","","37","","5","","7","","25.0","","101.15","","","","","","Rain Showers"
"-73.75","45.47","MONTREAL/PIERRE ELLIOTT TRUDEAU INTL A","7025250","2012-03-25 00:00","2012","03","25","00:00","5.8","","-5.7","","43","","5","","20","","25.0","","101.05","","","","","","Rain"
"-73.75","45.47","MONTREAL/PIERRE ELLIOTT TRUDEAU INTL A","7025250","2012-03-25 01:00","2012","03","25","01:00","5.9","","-6.2","","41","","6","","13","","25.0","","101.03","","","","","","Cloudy"
"-73.75","45.47","MONTREAL/PIERRE ELLIOTT TRUDEAU INTL A","7025250","2012-03-25 02:00","2012","03","25","02:00","5.9","","-5.0","","45","","5","","9","","25.0","","100.91","","","","","","Rain Showers"
"-73.75","45.47","MONTREAL/PIERRE ELLIOTT TRUDEAU INTL A","7025250","2012-03-25 03:00","2012","03","25","03:00","5.8","","-4.2","","49","","3","","7","","25.0","","100.84","","","","","","Cloudy"
"-73.75","45.47","MONTREAL/PIERRE ELLIOTT TRUDEAU INTL A","7025250","2012-03-25 04:00","2012","03","25","04:00","5.3","","-4.3","","50","","2","","19","","25.0","","100.79","","","","","","Cloudy"
"-73.75","45.47","MONTREAL/PIERRE ELLIOTT TRUDEAU INTL A","7025250","2012-03-25 05:00","2012","03","25","05:00","4.5","","-2.9","","59","","4","","11","","25.0","","100.73","","","","","","Cloudy"
"-73.75","45.47","MONTREAL/PIERRE ELLIOTT TRUDEAU INTL A","7025250","2012-03-25 06:00","2012","03","25","06:00","3.8","","-0.9","","71","","2","","15","","24.1","","100.76","","","","","","Rain Showers"
"-73.75","45.47","MONTREAL/PIERRE ELLIOTT TRUDEAU INTL A","7025250","2012-03-25 07:00","2012","03","25","07:00","2.5","","0.9","","89","","3","","17","","24.1","","100.76","","","","","","Rain"
"-73.75","45.47","MONTREAL/PIERRE ELLIOTT TRUDEAU INTL A","7025250","2012-03-25 08:00","2012","03","25","08:00","3.0","","1.5","","90","","3","","6","","24.1","","100.74","","","","","","Rain"
"-73.75","45.47","MONTREAL/PIERRE ELLIOTT TRUDEAU INTL A","7025250","2012-03-25 09:00","2012","03","25","09:00","3.1","","2.0","","92","","","","0","","6.4","","100.71","","","","","","Rain,Fog"
"-73.75","45.47","MONTREAL/PIERRE ELLIOTT TRUDEAU INTL A","7025250","2012-03-25 10:00","2012","03","25","10:00","3.9","","2.7","","92","","","","0","","12.9","","100.66","","","","","","Cloudy"
"-73.75","45.47","MONTREAL/PIERRE ELLIOTT TRUDEAU INTL A","7025250","2012-03-25 11:00","2012","03","25","11:00","5.2","","3.6","","89","","23","","6","","16.1","","100.58","","","","","","Cloudy"
"-73.75","45.47","MONTREAL/PIERRE ELLIOTT TRUDEAU INTL A","7025250","2012-03-25 12:00","2012","03","25","12:00","5.9","","3.7","","86","","26","","6","","24.1","","100.54","","","","","","Cloudy"
"-73.75","45.47","MONTREAL/PIERRE ELLIOTT TRUDEAU INTL A","7025250","2012-03-25 13:00","2012","03","25","13:00","6.6","","4.0","","83","","25","","6","","24.1","","100.47","","","","","","Cloudy"
"-73.75","45.47","MONTREAL/PIERRE ELLIOTT TRUDEAU INTL A","7025250","2012-03-25 14:00","2012","03","25","14:00","7.5","","4.1","","79","","23","","11","","24.1","","100.39","","","","","","Cloudy"
"-73.75","45.47","MONTREAL/PIERRE ELLIOTT TRUDEAU INTL A","7025250","2012-03-25 15:00","2012","03","25","15:00","7.6","","4.6","","81","","22","","9","","24.1","","100.29","","","","","","Mostly Cloudy"
"-73.75","45.47","MONTREAL/PIERRE ELLIOTT TRUDEAU INTL A","7025250","2012-03-25 16:00","2012","03","25","16:00","8.4","","4.8","","78","","20","","9","","24.1","","100.27","","","","","","Cloudy"
"-73.75","45.47","MONTREAL/PIERRE ELLIOTT TRUDEAU INTL A","7025250","2012-03-25 17:00","2012","03","25","17:00","9.2","","5.3","","77","","23","","7","","24.1","","100.26","","","","","","Cloudy"
"-73.75","45.47","MONTREAL/PIERRE ELLIOTT TRUDEAU INTL A","7025250","2012-03-25 18:00","2012","03","25","18:00","8.9","","5.7","","80","","27","","7","","24.1","","100.28","","","","","","Mostly Cloudy"
"-73.75","45.47","MONTREAL/PIERRE ELLIOTT TRUDEAU INTL A","7025250","2012-03-25 19:00","2012","03","25","19:00","8.7","","5.2","","79","","25","","4","","25.0","","100.25","","","","","","Mainly Clear"
"-73.75","45.47","MONTREAL/PIERRE ELLIOTT TRUDEAU INTL A","7025250","2012-03-25 20:00","2012","03","25","20:00","7.3","","4.9","","85","","19","","7","","25.0","","100.22","","","","","","Mostly Cloudy"
"-73.75","45.47","MONTREAL/PIERRE ELLIOTT TRUDEAU INTL A","7025250","2012-03-25 21:00","2012","03","25","21:00","8.2","","5.7","","84","","22","","13","","25.0","","100.21","","","","","","Mainly Clear"
"-73.75","45.47","MONTREAL/PIERRE ELLIOTT TRUDEAU INTL A","7025250","2012-03-25 22:00","2012","03","25","22:00","7.5","","5.5","","87","","23","","11","","25.0","","100.17","","","","","","Mainly Clear"
"-73.75","45.47","MONTREAL/PIERRE ELLIOTT TRUDEAU INTL A","7025250","2012-03-25 23:00","2012","03","25","23:00","6.4","","4.8","","89","","27","","11","","25.0","","100.12","","","","","","Mostly Cloudy"
"-73.75","45.47","MONTREAL/PIERRE ELLIOTT TRUDEAU INTL A","7025250","2012-03-26 00:00","2012","03","26","00:00","7.3","","3.7","","78","","32","","24","","25.0","","100.19","","","","","","Rain Showers"
"-73.75","45.47","MONTREAL/PIERRE ELLIOTT TRUDEAU INTL A","7025250","2012-03-26 01:00","2012","03","26","01:00","4.6","","-1.9","","63","","32","","33","","25.0","","100.29","","","","","","Rain Showers"
"-73.75","45.47","MONTREAL/PIERRE ELLIOTT TRUDEAU INTL A","7025250","2012-03-26 02:00","2012","03","26","02:00","2.6","","-3.7","","63","","32","","26","","25.0","","100.40","","","","","","Cloudy"
"-73.75","45.47","MONTREAL/PIERRE ELLIOTT TRUDEAU INTL A","7025250","2012-03-26 03:00","2012","03","26","03:00","0.8","","-8.9","","48","","34","","26","","25.0","","100.60","","","","","","Mostly Cloudy"
"-73.75","45.47","MONTREAL/PIERRE ELLIOTT TRUDEAU INTL A","7025250","2012-03-26 04:00","2012","03","26","04:00","-1.1","","-10.4","","49","","34","","22","","25.0","","100.74","","","","-7","","Clear"
"-73.75","45.47","MONTREAL/PIERRE ELLIOTT TRUDEAU INTL A","7025250","2012-03-26 05:00","2012","03","26","05:00","-1.9","","-10.9","","50","","32","","20","","25.0","","100.86","","","","-8","","Clear"
"-73.75","45.47","MONTREAL/PIERRE ELLIOTT TRUDEAU INTL A","7025250","2012-03-26 06:00","2012","03","26","06:00","-3.8","","-13.4","","47","","32","","32","","24.1","","101.03","","","","-12","","Clear"
"-73.75","45.47","MONTREAL/PIERRE ELLIOTT TRUDEAU INTL A","7025250","2012-03-26 07:00","2012","03","26","07:00","-3.8","","-13.6","","46","","31","","26","","48.3","","101.19","","","","-11","","Mainly Clear"
"-73.75","45.47","MONTREAL/PIERRE ELLIOTT TRUDEAU INTL A","7025250","2012-03-26 08:00","2012","03","26","08:00","-4.0","","-12.6","","51","","32","","26","","48.3","","101.27","","","","-11","","Mostly Cloudy"
"-73.75","45.47","MONTREAL/PIERRE ELLIOTT TRUDEAU INTL A","7025250","2012-03-26 09:00","2012","03","26","09:00","-3.0","","-13.1","","46","","31","","22","","48.3","","101.33","","","","-9","","Mainly Clear"
"-73.75","45.47","MONTREAL/PIERRE ELLIOTT TRUDEAU INTL A","7025250","2012-03-26 10:00","2012","03","26","10:00","-2.1","","-13.0","","43","","34","","26","","48.3","","101.32","","","","-9","","Mainly Clear"
"-73.75","45.47","MONTREAL/PIERRE ELLIOTT TRUDEAU INTL A","7025250","2012-03-26 11:00","2012","03","26","11:00","-0.6","","-11.4","","44","","31","","28","","48.3","","101.30","","","","-7","","Mainly Clear"
"-73.75","45.47","MONTREAL/PIERRE ELLIOTT TRUDEAU INTL A","7025250","2012-03-26 12:00","2012","03","26","12:00","0.2","","-11.4","","41","","28","","30","","48.3","","101.28","","","","","","Mainly Clear"
"-73.75","45.47","MONTREAL/PIERRE ELLIOTT TRUDEAU INTL A","7025250","2012-03-26 13:00","2012","03","26","13:00","0.6","","-12.6","","36","","30","","28","","48.3","","101.26","","","","","","Mainly Clear"
"-73.75","45.47","MONTREAL/PIERRE ELLIOTT TRUDEAU INTL A","7025250","2012-03-26 14:00","2012","03","26","14:00","1.3","","-13.3","","33","","31","","28","","48.3","","101.24","","","","","","Mainly Clear"
"-73.75","45.47","MONTREAL/PIERRE ELLIOTT TRUDEAU INTL A","7025250","2012-03-26 15:00","2012","03","26","15:00","1.4","","-14.8","","29","","34","","30","","48.3","","101.26","","","","","","Mainly Clear"
"-73.75","45.47","MONTREAL/PIERRE ELLIOTT TRUDEAU INTL A","7025250","2012-03-26 16:00","2012","03","26","16:00","1.3","","-15.7","","27","","33","","30","","48.3","","101.29","","","","","","Clear"
"-73.75","45.47","MONTREAL/PIERRE ELLIOTT TRUDEAU INTL A","7025250","2012-03-26 17:00","2012","03","26","17:00","1.2","","-16.3","","26","","31","","32","","48.3","","101.34","","","","","","Clear"
"-73.75","45.47","MONTREAL/PIERRE ELLIOTT TRUDEAU INTL A","7025250","2012-03-26 18:00","2012","03","26","18:00","0.1","","-17.3","","26","","33","","24","","48.3","","101.43","","","","","","Clear"
"-73.75","45.47","MONTREAL/PIERRE ELLIOTT TRUDEAU INTL A","7025250","2012-03-26 19:00","2012","03","26","19:00","-0.7","","-18.0","","26","","34","","28","","25.0","","101.56","","","","-7","","Clear"
"-73.75","45.47","MONTREAL/PIERRE ELLIOTT TRUDEAU INTL A","7025250","2012-03-26 20:00","2012","03","26","20:00","-1.4","","-18.7","","25","","34","","28","","25.0","","101.68","","","","-8","","Clear"
"-73.75","45.47","MONTREAL/PIERRE ELLIOTT TRUDEAU INTL A","7025250","2012-03-26 21:00","2012","03","26","21:00","-2.3","","-18.4","","28","","33","","24","","25.0","","101.79","","","","-9","","Clear"
"-73.75","45.47","MONTREAL/PIERRE ELLIOTT TRUDEAU INTL A","7025250","2012-03-26 22:00","2012","03","26","22:00","-2.9","","-17.8","","31","","35","","28","","25.0","","101.84","","","","-10","","Clear"
"-73.75","45.47","MONTREAL/PIERRE ELLIOTT TRUDEAU INTL A","7025250","2012-03-26 23:00","2012","03","26","23:00","-3.6","","-17.4","","33","","34","","26","","25.0","","101.90","","","","-11","","Clear"
"-73.75","45.47","MONTREAL/PIERRE ELLIOTT TRUDEAU INTL A","7025250","2012-03-27 00:00","2012","03","27","00:00","-4.3","","-17.6","","35","","33","","22","","25.0","","101.94","","","","-11","","Clear"
"-73.75","45.47","MONTREAL/PIERRE ELLIOTT TRUDEAU INTL A","7025250","2012-03-27 01:00","2012","03","27","01:00","-5.0","","-17.7","","36","","33","","19","","25.0","","101.96","","","","-11","","Clear"
"-73.75","45.47","MONTREAL/PIERRE ELLIOTT TRUDEAU INTL A","7025250","2012-03-27 02:00","2012","03","27","02:00","-5.4","","-16.8","","40","","34","","17","","25.0","","102.02","","","","-11","","Clear"
"-73.75","45.47","MONTREAL/PIERRE ELLIOTT TRUDEAU INTL A","7025250","2012-03-27 03:00","2012","03","27","03:00","-6.0","","-17.0","","41","","33","","17","","25.0","","102.06","","","","-12","","Clear"
"-73.75","45.47","MONTREAL/PIERRE ELLIOTT TRUDEAU INTL A","7025250","2012-03-27 04:00","2012","03","27","04:00","-6.5","","-17.3","","42","","32","","13","","25.0","","102.14","","","","-12","","Clear"
"-73.75","45.47","MONTREAL/PIERRE ELLIOTT TRUDEAU INTL A","7025250","2012-03-27 05:00","2012","03","27","05:00","-7.4","","-16.4","","49","","32","","11","","25.0","","102.24","","","","-12","","Clear"
"-73.75","45.47","MONTREAL/PIERRE ELLIOTT TRUDEAU INTL A","7025250","2012-03-27 06:00","2012","03","27","06:00","-7.5","","-16.4","","49","","32","","9","","48.3","","102.31","","","","-12","","Clear"
"-73.75","45.47","MONTREAL/PIERRE ELLIOTT TRUDEAU INTL A","7025250","2012-03-27 07:00","2012","03","27","07:00","-6.1","","-17.7","","39","","30","","9","","48.3","","102.39","","","","-10","","Clear"
"-73.75","45.47","MONTREAL/PIERRE ELLIOTT TRUDEAU INTL A","7025250","2012-03-27 08:00","2012","03","27","08:00","-5.1","","-18.7","","34","","36","","13","","48.3","","102.41","","","","-10","","Clear"
"-73.75","45.47","MONTREAL/PIERRE ELLIOTT TRUDEAU INTL A","7025250","2012-03-27 09:00","2012","03","27","09:00","-4.3","","-20.3","","27","","34","","9","","48.3","","102.44","","","","-8","","Clear"
"-73.75","45.47","MONTREAL/PIERRE ELLIOTT TRUDEAU INTL A","7025250","2012-03-27 10:00","2012","03","27","10:00","-2.5","","-21.7","","21","","","","0","","48.3","","102.48","","","","","","Clear"
"-73.75","45.47","MONTREAL/PIERRE ELLIOTT TRUDEAU INTL A","7025250","2012-03-27 11:00","2012","03","27","11:00","-1.6","","-20.6","","22","","28","","6","","48.3","","102.43","","","","-4","","Clear"
"-73.75","45.47","MONTREAL/PIERRE ELLIOTT TRUDEAU INTL A","7025250","2012-03-27 12:00","2012","03","27","12:00","0.2","","-16.7","","27","","21","","9","","48.3","","102.31","","","","","","Clear"
"-73.75","45.47","MONTREAL/PIERRE ELLIOTT TRUDEAU INTL A","7025250","2012-03-27 13:00","2012","03","27","13:00","1.0","","-16.1","","27","","27","","6","","48.3","","102.20","","","","","","Mainly Clear"
"-73.75","45.47","MONTREAL/PIERRE ELLIOTT TRUDEAU INTL A","7025250","2012-03-27 14:00","2012","03","27","14:00","1.7","","-18.4","","21","","30","","13","","48.3","","102.06","","","","","","Mainly Clear"
"-73.75","45.47","MONTREAL/PIERRE ELLIOTT TRUDEAU INTL A","7025250","2012-03-27 15:00","2012","03","27","15:00","2.1","","-16.5","","24","","21","","15","","48.3","","101.98","","","","","","Mainly Clear"
"-73.75","45.47","MONTREAL/PIERRE ELLIOTT TRUDEAU INTL A","7025250","2012-03-27 16:00","2012","03","27","16:00","2.7","","-13.0","","30","","21","","17","","48.3","","101.93","","","","","","Mostly Cloudy"
"-73.75","45.47","MONTREAL/PIERRE ELLIOTT TRUDEAU INTL A","7025250","2012-03-27 17:00","2012","03","27","17:00","2.7","","-12.3","","32","","22","","19","","48.3","","101.88","","","","","","Mostly Cloudy"
"-73.75","45.47","MONTREAL/PIERRE ELLIOTT TRUDEAU INTL A","7025250","2012-03-27 18:00","2012","03","27","18:00","2.6","","-11.9","","33","","21","","15","","48.3","","101.79","","","","","","Mostly Cloudy"
"-73.75","45.47","MONTREAL/PIERRE ELLIOTT TRUDEAU INTL A","7025250","2012-03-27 19:00","2012","03","27","19:00","2.8","","-11.7","","33","","22","","11","","25.0","","101.74","","","","","","Mostly Cloudy"
"-73.75","45.47","MONTREAL/PIERRE ELLIOTT TRUDEAU INTL A","7025250","2012-03-27 20:00","2012","03","27","20:00","2.6","","-11.4","","35","","18","","13","","25.0","","101.68","","","","","","Cloudy"
"-73.75","45.47","MONTREAL/PIERRE ELLIOTT TRUDEAU INTL A","7025250","2012-03-27 21:00","2012","03","27","21:00","2.1","","-10.7","","38","","17","","9","","25.0","","101.67","","","","","","Cloudy"
"-73.75","45.47","MONTREAL/PIERRE ELLIOTT TRUDEAU INTL A","7025250","2012-03-27 22:00","2012","03","27","22:00","1.0","","-10.1","","43","","16","","20","","25.0","","101.47","","","","","","Cloudy"
"-73.75","45.47","MONTREAL/PIERRE ELLIOTT TRUDEAU INTL A","7025250","2012-03-27 23:00","2012","03","27","23:00","1.0","","-10.8","","41","","16","","13","","25.0","","101.44","","","","","","Cloudy"
"-73.75","45.47","MONTREAL/PIERRE ELLIOTT TRUDEAU INTL A","7025250","2012-03-28 00:00","2012","03","28","00:00","1.0","","-10.8","","41","","28","","6","","16.1","","101.58","","","","","","Snow"
"-73.75","45.47","MONTREAL/PIERRE ELLIOTT TRUDEAU INTL A","7025250","2012-03-28 01:00","2012","03","28","01:00","-1.1","","-4.5","","78","","11","","11","","16.1","","101.39","","","","-5","","Snow"
"-73.75","45.47","MONTREAL/PIERRE ELLIOTT TRUDEAU INTL A","7025250","2012-03-28 02:00","2012","03","28","02:00","-1.0","","-4.8","","75","","10","","13","","9.7","","101.28","","","","-5","","Snow"
"-73.75","45.47","MONTREAL/PIERRE ELLIOTT TRUDEAU INTL A","7025250","2012-03-28 03:00","2012","03","28","03:00","-1.6","","-4.1","","83","","12","","20","","25.0","","101.08","","","","-7","","Snow"
"-73.75","45.47","MONTREAL/PIERRE ELLIOTT TRUDEAU INTL A","7025250","2012-03-28 04:00","2012","03","28","04:00","-1.5","","-3.8","","84","","14","","20","","25.0","","100.88","","","","-7","","Snow"
"-73.75","45.47","MONTREAL/PIERRE ELLIOTT TRUDEAU INTL A","7025250","2012-03-28 05:00","2012","03","28","05:00","-1.0","","-3.9","","81","","12","","19","","25.0","","100.68","","","","-6","","Cloudy"
"-73.75","45.47","MONTREAL/PIERRE ELLIOTT TRUDEAU INTL A","7025250","2012-03-28 06:00","2012","03","28","06:00","-0.3","","-3.5","","79","","12","","20","","24.1","","100.51","","","","-6","","Snow"
"-73.75","45.47","MONTREAL/PIERRE ELLIOTT TRUDEAU INTL A","7025250","2012-03-28 07:00","2012","03","28","07:00","0.5","","-2.7","","79","","14","","22","","24.1","","100.40","","","","","","Snow"
"-73.75","45.47","MONTREAL/PIERRE ELLIOTT TRUDEAU INTL A","7025250","2012-03-28 08:00","2012","03","28","08:00","0.8","","-2.9","","76","","12","","19","","8.0","","100.25","","","","","","Snow,Ice Pellets"
"-73.75","45.47","MONTREAL/PIERRE ELLIOTT TRUDEAU INTL A","7025250","2012-03-28 09:00","2012","03","28","09:00","2.1","","-3.3","","67","","14","","15","","48.3","","100.08","","","","","","Cloudy"
"-73.75","45.47","MONTREAL/PIERRE ELLIOTT TRUDEAU INTL A","7025250","2012-03-28 10:00","2012","03","28","10:00","2.3","","-3.3","","66","","13","","11","","48.3","","99.94","","","","","","Cloudy"
"-73.75","45.47","MONTREAL/PIERRE ELLIOTT TRUDEAU INTL A","7025250","2012-03-28 11:00","2012","03","28","11:00","2.8","","-2.1","","70","","13","","13","","48.3","","99.74","","","","","","Cloudy"
"-73.75","45.47","MONTREAL/PIERRE ELLIOTT TRUDEAU INTL A","7025250","2012-03-28 12:00","2012","03","28","12:00","3.8","","-3.2","","60","","9","","7","","48.3","","99.64","","","","","","Cloudy"
"-73.75","45.47","MONTREAL/PIERRE ELLIOTT TRUDEAU INTL A","7025250","2012-03-28 13:00","2012","03","28","13:00","4.3","","-2.9","","59","","12","","9","","48.3","","99.51","","","","","","Cloudy"
"-73.75","45.47","MONTREAL/PIERRE ELLIOTT TRUDEAU INTL A","7025250","2012-03-28 14:00","2012","03","28","14:00","4.4","","-1.2","","67","","5","","13","","24.1","","99.45","","","","","","Rain"
"-73.75","45.47","MONTREAL/PIERRE ELLIOTT TRUDEAU INTL A","7025250","2012-03-28 15:00","2012","03","28","15:00","2.5","","0.6","","87","","4","","19","","19.3","","99.42","","","","","","Rain"
"-73.75","45.47","MONTREAL/PIERRE ELLIOTT TRUDEAU INTL A","7025250","2012-03-28 16:00","2012","03","28","16:00","2.2","","0.7","","90","","36","","20","","12.9","","99.48","","","","","","Rain"
"-73.75","45.47","MONTREAL/PIERRE ELLIOTT TRUDEAU INTL A","7025250","2012-03-28 17:00","2012","03","28","17:00","1.5","","0.2","","91","","2","","19","","16.1","","99.53","","","","","","Drizzle"
"-73.75","45.47","MONTREAL/PIERRE ELLIOTT TRUDEAU INTL A","7025250","2012-03-28 18:00","2012","03","28","18:00","1.3","","-0.2","","90","","36","","13","","16.1","","99.63","","","","","","Drizzle"
"-73.75","45.47","MONTREAL/PIERRE ELLIOTT TRUDEAU INTL A","7025250","2012-03-28 19:00","2012","03","28","19:00","1.3","","-0.2","","90","","35","","11","","12.9","","99.74","","","","","","Cloudy"
"-73.75","45.47","MONTREAL/PIERRE ELLIOTT TRUDEAU INTL A","7025250","2012-03-28 20:00","2012","03","28","20:00","1.2","","-0.3","","90","","36","","13","","9.7","","99.86","","","","","","Fog"
"-73.75","45.47","MONTREAL/PIERRE ELLIOTT TRUDEAU INTL A","7025250","2012-03-28 21:00","2012","03","28","21:00","1.0","","-0.5","","90","","36","","15","","9.7","","99.92","","","","","","Fog"
"-73.75","45.47","MONTREAL/PIERRE ELLIOTT TRUDEAU INTL A","7025250","2012-03-28 22:00","2012","03","28","22:00","1.0","","-0.7","","88","","1","","13","","9.7","","99.95","","","","","","Fog"
"-73.75","45.47","MONTREAL/PIERRE ELLIOTT TRUDEAU INTL A","7025250","2012-03-28 23:00","2012","03","28","23:00","0.8","","-1.0","","88","","36","","17","","11.3","","99.99","","","","","","Cloudy"
"-73.75","45.47","MONTREAL/PIERRE ELLIOTT TRUDEAU INTL A","7025250","2012-03-29 00:00","2012","03","29","00:00","0.6","","-1.2","","88","","35","","15","","12.9","","100.05","","","","","","Cloudy"
"-73.75","45.47","MONTREAL/PIERRE ELLIOTT TRUDEAU INTL A","7025250","2012-03-29 01:00","2012","03","29","01:00","0.5","","-1.5","","86","","36","","11","","12.9","","100.12","","","","","","Cloudy"
"-73.75","45.47","MONTREAL/PIERRE ELLIOTT TRUDEAU INTL A","7025250","2012-03-29 02:00","2012","03","29","02:00","0.4","","-1.8","","85","","1","","17","","25.0","","100.15","","","","","","Cloudy"
"-73.75","45.47","MONTREAL/PIERRE ELLIOTT TRUDEAU INTL A","7025250","2012-03-29 03:00","2012","03","29","03:00","0.5","","-1.9","","84","","2","","11","","25.0","","100.19","","","","","","Cloudy"
"-73.75","45.47","MONTREAL/PIERRE ELLIOTT TRUDEAU INTL A","7025250","2012-03-29 04:00","2012","03","29","04:00","0.6","","-2.1","","82","","1","","11","","25.0","","100.27","","","","","","Cloudy"
"-73.75","45.47","MONTREAL/PIERRE ELLIOTT TRUDEAU INTL A","7025250","2012-03-29 05:00","2012","03","29","05:00","0.6","","-2.1","","82","","36","","9","","25.0","","100.35","","","","","","Snow"
"-73.75","45.47","MONTREAL/PIERRE ELLIOTT TRUDEAU INTL A","7025250","2012-03-29 06:00","2012","03","29","06:00","0.7","","-1.9","","83","","34","","6","","24.1","","100.44","","","","","","Snow"
"-73.75","45.47","MONTREAL/PIERRE ELLIOTT TRUDEAU INTL A","7025250","2012-03-29 07:00","2012","03","29","07:00","0.8","","-1.6","","84","","33","","7","","24.1","","100.52","","","","","","Snow"
"-73.75","45.47","MONTREAL/PIERRE ELLIOTT TRUDEAU INTL A","7025250","2012-03-29 08:00","2012","03","29","08:00","1.5","","-1.1","","83","","30","","6","","16.1","","100.59","","","","","","Snow"
"-73.75","45.47","MONTREAL/PIERRE ELLIOTT TRUDEAU INTL A","7025250","2012-03-29 09:00","2012","03","29","09:00","2.5","","-1.2","","77","","36","","9","E","24.1","","100.64","","","","","","Snow"
"-73.75","45.47","MONTREAL/PIERRE ELLIOTT TRUDEAU INTL A","7025250","2012-03-29 10:00","2012","03","29","10:00","3.2","","-2.4","","67","","36","","13","E","24.1","","100.70","","","","","","Cloudy"
"-73.75","45.47","MONTREAL/PIERRE ELLIOTT TRUDEAU INTL A","7025250","2012-03-29 11:00","2012","03","29","11:00","3.6","","-2.2","","66","","34","","9","","24.1","","100.71","","","","","","Cloudy"
"-73.75","45.47","MONTREAL/PIERRE ELLIOTT TRUDEAU INTL A","7025250","2012-03-29 12:00","2012","03","29","12:00","3.9","","-2.2","","64","","33","","6","","24.1","","100.71","","","","","","Cloudy"
"-73.75","45.47","MONTREAL/PIERRE ELLIOTT TRUDEAU INTL A","7025250","2012-03-29 13:00","2012","03","29","13:00","4.2","","-2.5","","62","","32","","13","","24.1","","100.72","","","","","","Cloudy"
"-73.75","45.47","MONTREAL/PIERRE ELLIOTT TRUDEAU INTL A","7025250","2012-03-29 14:00","2012","03","29","14:00","4.0","","-2.8","","61","","32","","15","","24.1","","100.76","","","","","","Cloudy"
"-73.75","45.47","MONTREAL/PIERRE ELLIOTT TRUDEAU INTL A","7025250","2012-03-29 15:00","2012","03","29","15:00","4.1","","-3.5","","58","","31","","19","","24.1","","100.81","","","","","","Cloudy"
"-73.75","45.47","MONTREAL/PIERRE ELLIOTT TRUDEAU INTL A","7025250","2012-03-29 16:00","2012","03","29","16:00","3.9","","-2.8","","62","","32","","13","","24.1","","100.87","","","","","","Cloudy"
"-73.75","45.47","MONTREAL/PIERRE ELLIOTT TRUDEAU INTL A","7025250","2012-03-29 17:00","2012","03","29","17:00","3.5","","-4.1","","57","","34","","24","","24.1","","100.92","","","","","","Cloudy"
"-73.75","45.47","MONTREAL/PIERRE ELLIOTT TRUDEAU INTL A","7025250","2012-03-29 18:00","2012","03","29","18:00","3.4","","-5.6","","52","","33","","20","","24.1","","100.97","","","","","","Mostly Cloudy"
"-73.75","45.47","MONTREAL/PIERRE ELLIOTT TRUDEAU INTL A","7025250","2012-03-29 19:00","2012","03","29","19:00","2.9","","-5.6","","54","","31","","19","","25.0","","101.01","","","","","","Cloudy"
"-73.75","45.47","MONTREAL/PIERRE ELLIOTT TRUDEAU INTL A","7025250","2012-03-29 20:00","2012","03","29","20:00","2.2","","-4.7","","60","","31","","19","","25.0","","101.07","","","","","","Cloudy"
"-73.75","45.47","MONTREAL/PIERRE ELLIOTT TRUDEAU INTL A","7025250","2012-03-29 21:00","2012","03","29","21:00","1.9","","-6.3","","55","","31","","24","","25.0","","101.11","","","","","","Mostly Cloudy"
"-73.75","45.47","MONTREAL/PIERRE ELLIOTT TRUDEAU INTL A","7025250","2012-03-29 22:00","2012","03","29","22:00","1.4","","-7.4","","52","","33","","17","","25.0","","101.14","","","","","","Mostly Cloudy"
"-73.75","45.47","MONTREAL/PIERRE ELLIOTT TRUDEAU INTL A","7025250","2012-03-29 23:00","2012","03","29","23:00","0.8","","-8.2","","51","","30","","24","","25.0","","101.17","","","","","","Mostly Cloudy"
"-73.75","45.47","MONTREAL/PIERRE ELLIOTT TRUDEAU INTL A","7025250","2012-03-30 00:00","2012","03","30","00:00","0.1","","-9.1","","50","","34","","19","","25.0","","101.18","","","","","","Mostly Cloudy"
"-73.75","45.47","MONTREAL/PIERRE ELLIOTT TRUDEAU INTL A","7025250","2012-03-30 01:00","2012","03","30","01:00","-1.0","","-9.8","","51","","30","","20","","25.0","","101.21","","","","-7","","Mainly Clear"
"-73.75","45.47","MONTREAL/PIERRE ELLIOTT TRUDEAU INTL A","7025250","2012-03-30 02:00","2012","03","30","02:00","-2.2","","-9.7","","56","","34","","15","","25.0","","101.22","","","","-7","","Clear"
"-73.75","45.47","MONTREAL/PIERRE ELLIOTT TRUDEAU INTL A","7025250","2012-03-30 03:00","2012","03","30","03:00","-3.5","","-11.4","","54","","33","","19","","25.0","","101.25","","","","-9","","Mainly Clear"
"-73.75","45.47","MONTREAL/PIERRE ELLIOTT TRUDEAU INTL A","7025250","2012-03-30 04:00","2012","03","30","04:00","-4.3","","-10.8","","60","","1","","4","","25.0","","101.33","","","","-6","","Mainly Clear"
"-73.75","45.47","MONTREAL/PIERRE ELLIOTT TRUDEAU INTL A","7025250","2012-03-30 05:00","2012","03","30","05:00","-5.1","","-10.4","","66","","31","","11","","24.1","","101.32","","","","-10","","Clear"
"-73.75","45.47","MONTREAL/PIERRE ELLIOTT TRUDEAU INTL A","7025250","2012-03-30 06:00","2012","03","30","06:00","-4.8","","-10.8","","63","","32","","13","","48.3","","101.39","","","","-10","","Clear"
"-73.75","45.47","MONTREAL/PIERRE ELLIOTT TRUDEAU INTL A","7025250","2012-03-30 07:00","2012","03","30","07:00","-4.3","","-10.9","","60","","32","","15","","48.3","","101.52","","","","-10","","Clear"
"-73.75","45.47","MONTREAL/PIERRE ELLIOTT TRUDEAU INTL A","7025250","2012-03-30 08:00","2012","03","30","08:00","-3.0","","-10.4","","57","","30","","11","","48.3","","101.56","","","","-7","","Clear"
"-73.75","45.47","MONTREAL/PIERRE ELLIOTT TRUDEAU INTL A","7025250","2012-03-30 09:00","2012","03","30","09:00","-2.0","","-10.1","","54","","32","","13","","48.3","","101.63","","","","-6","","Clear"
"-73.75","45.47","MONTREAL/PIERRE ELLIOTT TRUDEAU INTL A","7025250","2012-03-30 10:00","2012","03","30","10:00","-0.8","","-9.5","","52","","33","","9","","48.3","","101.62","","","","-4","","Clear"
"-73.75","45.47","MONTREAL/PIERRE ELLIOTT TRUDEAU INTL A","7025250","2012-03-30 11:00","2012","03","30","11:00","0.9","","-9.6","","45","","7","","4","","48.3","","101.57","","","","","","Mostly Cloudy"
"-73.75","45.47","MONTREAL/PIERRE ELLIOTT TRUDEAU INTL A","7025250","2012-03-30 12:00","2012","03","30","12:00","1.6","","-8.0","","49","","19","","17","","48.3","","101.52","","","","","","Mainly Clear"
"-73.75","45.47","MONTREAL/PIERRE ELLIOTT TRUDEAU INTL A","7025250","2012-03-30 13:00","2012","03","30","13:00","3.1","","-9.1","","40","","23","","6","","48.3","","101.38","","","","","","Mainly Clear"
"-73.75","45.47","MONTREAL/PIERRE ELLIOTT TRUDEAU INTL A","7025250","2012-03-30 14:00","2012","03","30","14:00","4.4","","-8.8","","38","","22","","17","","48.3","","101.30","","","","","","Mainly Clear"
"-73.75","45.47","MONTREAL/PIERRE ELLIOTT TRUDEAU INTL A","7025250","2012-03-30 15:00","2012","03","30","15:00","4.8","","-8.9","","36","","20","","17","","48.3","","101.26","","","","","","Mostly Cloudy"
"-73.75","45.47","MONTREAL/PIERRE ELLIOTT TRUDEAU INTL A","7025250","2012-03-30 16:00","2012","03","30","16:00","4.8","","-9.3","","35","","21","","15","","48.3","","101.26","","","","","","Mostly Cloudy"
"-73.75","45.47","MONTREAL/PIERRE ELLIOTT TRUDEAU INTL A","7025250","2012-03-30 17:00","2012","03","30","17:00","4.4","","-8.6","","38","","19","","15","","48.3","","101.24","","","","","","Mostly Cloudy"
"-73.75","45.47","MONTREAL/PIERRE ELLIOTT TRUDEAU INTL A","7025250","2012-03-30 18:00","2012","03","30","18:00","3.9","","-7.9","","42","","21","","11","","24.1","","101.26","","","","","","Mostly Cloudy"
"-73.75","45.47","MONTREAL/PIERRE ELLIOTT TRUDEAU INTL A","7025250","2012-03-30 19:00","2012","03","30","19:00","3.1","","-6.7","","49","","22","","7","","25.0","","101.29","","","","","","Mostly Cloudy"
"-73.75","45.47","MONTREAL/PIERRE ELLIOTT TRUDEAU INTL A","7025250","2012-03-30 20:00","2012","03","30","20:00","3.0","","-8.4","","43","","25","","7","","25.0","","101.30","","","","","","Mostly Cloudy"
"-73.75","45.47","MONTREAL/PIERRE ELLIOTT TRUDEAU INTL A","7025250","2012-03-30 21:00","2012","03","30","21:00","1.7","","-9.0","","45","","19","","4","","25.0","","101.32","","","","","","Cloudy"
"-73.75","45.47","MONTREAL/PIERRE ELLIOTT TRUDEAU INTL A","7025250","2012-03-30 22:00","2012","03","30","22:00","0.4","","-8.1","","53","","","","0","","25.0","","101.30","","","","","","Mostly Cloudy"
"-73.75","45.47","MONTREAL/PIERRE ELLIOTT TRUDEAU INTL A","7025250","2012-03-30 23:00","2012","03","30","23:00","1.4","","-7.7","","51","","4","","6","","25.0","","101.34","","","","","","Mainly Clear"
"-73.75","45.47","MONTREAL/PIERRE ELLIOTT TRUDEAU INTL A","7025250","2012-03-31 00:00","2012","03","31","00:00","1.5","","-8.6","","47","","5","","13","","25.0","","101.33","","","","","","Mostly Cloudy"
"-73.75","45.47","MONTREAL/PIERRE ELLIOTT TRUDEAU INTL A","7025250","2012-03-31 01:00","2012","03","31","01:00","1.3","","-9.6","","44","","6","","13","","25.0","","101.31","","","","","","Mostly Cloudy"
"-73.75","45.47","MONTREAL/PIERRE ELLIOTT TRUDEAU INTL A","7025250","2012-03-31 02:00","2012","03","31","02:00","1.3","","-9.7","","44","","5","","11","","25.0","","101.29","","","","","","Cloudy"
"-73.75","45.47","MONTREAL/PIERRE ELLIOTT TRUDEAU INTL A","7025250","2012-03-31 03:00","2012","03","31","03:00","0.7","","-8.8","","49","","3","","13","","25.0","","101.30","","","","","","Cloudy"
"-73.75","45.47","MONTREAL/PIERRE ELLIOTT TRUDEAU INTL A","7025250","2012-03-31 04:00","2012","03","31","04:00","-0.9","","-8.5","","56","","3","","13","","25.0","","101.32","","","","-5","","Cloudy"
"-73.75","45.47","MONTREAL/PIERRE ELLIOTT TRUDEAU INTL A","7025250","2012-03-31 05:00","2012","03","31","05:00","-0.6","","-9.2","","52","","3","","13","","25.0","","101.30","","","","-5","","Cloudy"
"-73.75","45.47","MONTREAL/PIERRE ELLIOTT TRUDEAU INTL A","7025250","2012-03-31 06:00","2012","03","31","06:00","-0.5","","-9.2","","52","","4","","15","","48.3","","101.32","","","","-5","","Cloudy"
"-73.75","45.47","MONTREAL/PIERRE ELLIOTT TRUDEAU INTL A","7025250","2012-03-31 07:00","2012","03","31","07:00","-0.3","","-9.2","","51","","3","","19","","48.3","","101.32","","","","-5","","Cloudy"
"-73.75","45.47","MONTREAL/PIERRE ELLIOTT TRUDEAU INTL A","7025250","2012-03-31 08:00","2012","03","31","08:00","0.7","","-8.5","","50","","3","","17","","48.3","","101.33","","","","","","Cloudy"
"-73.75","45.47","MONTREAL/PIERRE ELLIOTT TRUDEAU INTL A","7025250","2012-03-31 09:00","2012","03","31","09:00","1.5","","-7.8","","50","","4","","17","","48.3","","101.34","","","","","","Mostly Cloudy"
"-73.75","45.47","MONTREAL/PIERRE ELLIOTT TRUDEAU INTL A","7025250","2012-03-31 10:00","2012","03","31","10:00","2.9","","-8.1","","44","","4","","15","","48.3","","101.30","","","","","","Mainly Clear"
"-73.75","45.47","MONTREAL/PIERRE ELLIOTT TRUDEAU INTL A","7025250","2012-03-31 11:00","2012","03","31","11:00","4.6","","-9.7","","35","","6","","7","","48.3","","101.24","","","","","","Clear"
"-73.75","45.47","MONTREAL/PIERRE ELLIOTT TRUDEAU INTL A","7025250","2012-03-31 12:00","2012","03","31","12:00","6.4","","-7.1","","37","","7","","11","","48.3","","101.16","","","","","","Clear"
"-73.75","45.47","MONTREAL/PIERRE ELLIOTT TRUDEAU INTL A","7025250","2012-03-31 13:00","2012","03","31","13:00","6.5","","-9.7","","30","","7","","9","","48.3","","101.08","","","","","","Clear"
"-73.75","45.47","MONTREAL/PIERRE ELLIOTT TRUDEAU INTL A","7025250","2012-03-31 14:00","2012","03","31","14:00","7.7","","-8.5","","31","","4","","4","","48.3","","101.01","","","","","","Mainly Clear"
"-73.75","45.47","MONTREAL/PIERRE ELLIOTT TRUDEAU INTL A","7025250","2012-03-31 15:00","2012","03","31","15:00","7.7","","-8.6","","30","","11","","6","","48.3","","100.94","","","","","","Mainly Clear"
"-73.75","45.47","MONTREAL/PIERRE ELLIOTT TRUDEAU INTL A","7025250","2012-03-31 16:00","2012","03","31","16:00","8.4","","-7.7","","31","","4","","4","","48.3","","100.89","","","","","","Mainly Clear"
"-73.75","45.47","MONTREAL/PIERRE ELLIOTT TRUDEAU INTL A","7025250","2012-03-31 17:00","2012","03","31","17:00","7.9","","-8.1","","31","","24","","6","","48.3","","100.88","","","","","","Mainly Clear"
"-73.75","45.47","MONTREAL/PIERRE ELLIOTT TRUDEAU INTL A","7025250","2012-03-31 18:00","2012","03","31","18:00","7.0","","-8.2","","33","","25","","7","","48.3","","100.87","","","","","","Mainly Clear"
"-73.75","45.47","MONTREAL/PIERRE ELLIOTT TRUDEAU INTL A","7025250","2012-03-31 19:00","2012","03","31","19:00","5.9","","-8.0","","36","","17","","4","","25.0","","100.88","","","","","","Clear"
"-73.75","45.47","MONTREAL/PIERRE ELLIOTT TRUDEAU INTL A","7025250","2012-03-31 20:00","2012","03","31","20:00","4.4","","-7.2","","43","","16","","9","","25.0","","100.85","","","","","","Clear"
"-73.75","45.47","MONTREAL/PIERRE ELLIOTT TRUDEAU INTL A","7025250","2012-03-31 21:00","2012","03","31","21:00","2.6","","-6.3","","52","","24","","7","","25.0","","100.86","","","","","","Clear"
"-73.75","45.47","MONTREAL/PIERRE ELLIOTT TRUDEAU INTL A","7025250","2012-03-31 22:00","2012","03","31","22:00","2.7","","-6.7","","50","","","","0","","25.0","","100.82","","","","","","Clear"
"-73.75","45.47","MONTREAL/PIERRE ELLIOTT TRUDEAU INTL A","7025250","2012-03-31 23:00","2012","03","31","23:00","1.5","","-6.9","","54","","","","0","","25.0","","100.79","","","","","","Clear"
